{"version": 0.6, "generator": "Overpass API 0.7.59 e21c39fe", "osm3s": {"timestamp_osm_base": "2022-11-03T00:30:01Z", "copyright": "The data included in this document is from www.openstreetmap.org. The data is made available under ODbL."}, "elements": [{"type": "node", "id": 255742565, "lat": 55.6595234, "lon": 37.7523825, "tags": {"amenity": "pub", "food": "yes", "name": "\u041a\u0440\u0443\u0436\u043a\u0430", "opening_hours": "Mo-Fr 12:00-24:00; Sa-Su 12:00-04:00", "phone": "+7 499 7222850", "website": "http://www.kruzhka.ru/", "wheelchair": "no"}}, {"type": "node", "id": 255742577, "lat": 55.6302, "lon": 37.5150501, "tags": {"amenity": "pub", "food": "yes", "name": "\u041a\u0440\u0443\u0436\u043a\u0430", "website": "http://www.kruzhka.ru/"}}, {"type": "node", "id": 255742601, "lat": 55.6512141, "lon": 37.7444261, "tags": {"amenity": "pub", "brand": "\u041f\u043e\u043b\u043d\u0430\u044f \u043a\u0440\u0443\u0436\u043a\u0430", "brand:wikidata": "Q6439558", "brand:wikipedia": "ru:\u041a\u0440\u0443\u0436\u043a\u0430 (\u0441\u0435\u0442\u044c \u0440\u0435\u0441\u0442\u043e\u0440\u0430\u043d\u043e\u0432)", "contact:website": "https://polnayakruzhka.ru/", "craft_beer": "yes", "diet:vegetarian": "no", "food": "yes", "name": "\u041f\u043e\u043b\u043d\u0430\u044f \u043a\u0440\u0443\u0436\u043a\u0430", "name:ru": "\u041f\u043e\u043b\u043d\u0430\u044f \u043a\u0440\u0443\u0436\u043a\u0430"}}, {"type": "node", "id": 255742629, "lat": 55.7307968, "lon": 37.6634839, "tags": {"amenity": "pub", "brand": "\u041f\u043e\u043b\u043d\u0430\u044f \u043a\u0440\u0443\u0436\u043a\u0430", "brand:wikidata": "Q6439558", "brand:wikipedia": "ru:\u041a\u0440\u0443\u0436\u043a\u0430 (\u0441\u0435\u0442\u044c \u0440\u0435\u0441\u0442\u043e\u0440\u0430\u043d\u043e\u0432)", "contact:website": "https://polnayakruzhka.ru/", "craft_beer": "yes", "diet:vegetarian": "no", "food": "yes", "name": "\u041f\u043e\u043b\u043d\u0430\u044f \u043a\u0440\u0443\u0436\u043a\u0430", "name:ru": "\u041f\u043e\u043b\u043d\u0430\u044f \u043a\u0440\u0443\u0436\u043a\u0430", "wheelchair": "no"}}, {"type": "node", "id": 255742645, "lat": 55.765574, "lon": 37.638976, "tags": {"amenity": "pub", "brand": "\u041f\u043e\u043b\u043d\u0430\u044f \u043a\u0440\u0443\u0436\u043a\u0430", "brand:wikidata": "Q6439558", "brand:wikipedia": "ru:\u041a\u0440\u0443\u0436\u043a\u0430 (\u0441\u0435\u0442\u044c \u0440\u0435\u0441\u0442\u043e\u0440\u0430\u043d\u043e\u0432)", "contact:phone": "+7 495 6443936", "contact:website": "https://polnayakruzhka.ru/", "craft_beer": "yes", "diet:vegetarian": "no", "food": "yes", "internet_access": "wlan", "internet_access:fee": "no", "name": "\u041f\u043e\u043b\u043d\u0430\u044f \u043a\u0440\u0443\u0436\u043a\u0430", "name:en": "Kruzhka", "name:ru": "\u041f\u043e\u043b\u043d\u0430\u044f \u043a\u0440\u0443\u0436\u043a\u0430", "opening_hours": "Mo-Su 12:00-24:00; Fr,Sa 12:00-04:00"}}, {"type": "node", "id": 429453905, "lat": 55.6122545, "lon": 37.7213154, "tags": {"amenity": "pub", "name": "\u0427\u0435\u0448\u0441\u043a\u0430 \u043f\u0438\u0432\u043d\u0438\u0446\u0430"}}, {"type": "node", "id": 441302145, "lat": 55.762366, "lon": 37.5646826}, {"type": "node", "id": 441302149, "lat": 55.7622894, "lon": 37.5650745}, {"type": "node", "id": 441302152, "lat": 55.7621869, "lon": 37.5650113}, {"type": "node", "id": 441302154, "lat": 55.7622635, "lon": 37.5646193}, {"type": "node", "id": 520359002, "lat": 55.8688272, "lon": 37.6629616, "tags": {"amenity": "pub", "name": "\u041f\u043e\u0434\u0432\u0430\u043b\u044c\u0447\u0438\u043a", "opening_hours": "12:00-02:00"}}, {"type": "node", "id": 527735762, "lat": 55.8647502, "lon": 37.6612355, "tags": {"amenity": "pub", "level": "2", "name": "\u0418\u043c\u043f\u0435\u0440\u0438\u0430\u043b"}}, {"type": "node", "id": 529131794, "lat": 55.8599013, "lon": 37.6590427, "tags": {"amenity": "pub", "hookah": "yes", "internet_access": "wlan", "internet_access:fee": "no", "internet_access:operator": "\u0411\u0438\u043b\u0430\u0439\u043d", "level": "2", "name": "\u0411\u0438\u0440\u043b\u0430\u0439\u043d", "smoking": "separated"}}, {"type": "node", "id": 529131804, "lat": 55.866905, "lon": 37.6825864, "tags": {"addr:housenumber": "6 \u04413", "addr:street": "\u0443\u043b\u0438\u0446\u0430 \u041c\u0435\u043d\u0436\u0438\u043d\u0441\u043a\u043e\u0433\u043e", "amenity": "pub", "fixme": "\u041f\u0435\u0440\u0435\u043d\u0435\u0441\u0442\u0438 \u0430\u0434\u0440\u0435\u0441 \u043d\u0430 \u0434\u043e\u043c; \u0441\u0443\u0434\u044f \u043f\u043e \u0432\u0430\u043b\u0438\u0434\u0430\u0442\u043e\u0440\u0443 \u0442\u0443\u0442 \u0435\u0441\u0442\u044c 6\u04412 6\u04413 6\u04414", "name": "\u041f\u043e\u0433\u0440\u0435\u0431\u043e\u043a"}}, {"type": "node", "id": 571529955, "lat": 55.8189999, "lon": 37.6490151, "tags": {"addr:housenumber": "10 \u043a5", "addr:street": "\u042f\u0440\u043e\u0441\u043b\u0430\u0432\u0441\u043a\u0430\u044f \u0443\u043b\u0438\u0446\u0430", "amenity": "pub", "contact:phone": "+7 495 6176103", "contact:website": "http://shtirbeer.ru", "internet_access": "wlan", "internet_access:fee": "no", "name": "\u0428\u0442\u0438\u0440\u0411\u0438\u0440\u041b\u0438\u0446", "name:en": "ShtirBeerLitz", "opening_hours": "Mo-Su 12:00-24:00; Th-Sa 12:00-03:00", "phone": "+7 495 6176103"}}, {"type": "node", "id": 576375498, "lat": 55.8698139, "lon": 37.6764585, "tags": {"amenity": "pub", "name": "\u0421\u0442\u0430\u0440\u0430\u044f \u043a\u0430\u0440\u0442\u0430"}}, {"type": "node", "id": 576375507, "lat": 55.8696788, "lon": 37.6770095, "tags": {"amenity": "pub", "name": "\u0422\u0440\u043e\u0439\u043a\u0430"}}, {"type": "node", "id": 580988627, "lat": 55.6314274, "lon": 37.5188668, "tags": {"amenity": "pub", "name": "\u0427\u0451\u0440\u043d\u0430\u044f \u043a\u0430\u0440\u0430\u043a\u0430\u0442\u0438\u0446\u0430"}}, {"type": "node", "id": 586152502, "lat": 55.6261314, "lon": 37.7497335, "tags": {"amenity": "pub"}}, {"type": "node", "id": 586747278, "lat": 55.6144886, "lon": 37.7434357, "tags": {"amenity": "pub"}}, {"type": "node", "id": 609546102, "lat": 55.5668541, "lon": 37.5668146, "tags": {"amenity": "pub", "name": "\u0418\u043d\u0434\u0438\u0433\u043e"}}, {"type": "node", "id": 634995220, "lat": 55.792746, "lon": 37.5925363, "tags": {"amenity": "pub", "name": "\u0417\u043e\u043b\u043e\u0442\u0430\u044f \u0432\u043e\u0431\u043b\u0430"}}, {"type": "node", "id": 639972876, "lat": 55.7724715, "lon": 37.6813219, "tags": {"addr:housenumber": "4/6 \u04411", "addr:street": "\u0411\u0430\u043a\u0443\u043d\u0438\u043d\u0441\u043a\u0430\u044f \u0443\u043b\u0438\u0446\u0430", "amenity": "pub", "contact:website": "https://technique.pub/", "name": "\u0422\u0435\u0445\u043d\u0438\u043a"}}, {"type": "node", "id": 642020088, "lat": 55.6864853, "lon": 37.5469883, "tags": {"amenity": "pub", "contact:phone": "+7 800 7004654", "contact:website": "http://www.linderhof.ru", "internet_access": "wlan", "internet_access:fee": "no", "name": "\u041b\u0438\u043d\u0434\u0435\u0440\u0445\u043e\u0444", "name:en": "Linderhof"}}, {"type": "node", "id": 661982496, "lat": 55.8939675, "lon": 37.4510173, "tags": {"amenity": "pub", "name": "\u0421\u043f\u043e\u0440\u0442 \u0431\u0430\u0440"}}, {"type": "node", "id": 665334586, "lat": 55.6420089, "lon": 37.5245483, "tags": {"addr:housenumber": "104", "addr:street": "\u041f\u0440\u043e\u0444\u0441\u043e\u044e\u0437\u043d\u0430\u044f \u0443\u043b\u0438\u0446\u0430", "amenity": "pub", "cuisine": "international", "name": "\u0414\u043e\u0440\u0444", "opening_hours": "Su-Th 12:00-24:00; Fr-Sa 12:00-02:00", "phone": "+7 495 7810412", "website": "restorandorf.ru"}}, {"type": "node", "id": 666732562, "lat": 55.6420954, "lon": 37.5239009, "tags": {"amenity": "pub", "name": "\u0414\u0440\u0430\u043d\u043a\u0435\u043d \u0414\u0430\u043a \u041f\u0430\u0431"}}, {"type": "node", "id": 745271763, "lat": 55.7411808, "lon": 37.628376, "tags": {"addr:city": "\u041c\u043e\u0441\u043a\u0432\u0430", "addr:housenumber": "24", "addr:street": "\u041f\u044f\u0442\u043d\u0438\u0446\u043a\u0430\u044f \u0443\u043b\u0438\u0446\u0430", "amenity": "pub", "contact:phone": "+7 495 9595852", "contact:website": "http://www.rmcom.ru/page-molly-gwynns", "name": "\u041c\u043e\u043b\u043b\u0438 \u0413\u0432\u0438\u043d\u043d'\u0437", "name:en": "Molly Gwynn\u2019s", "opening_hours": "Mo-Th 12:00-24:00; Fr-Sa 12:00-02:00; Su 12:00-24:00", "operator": "Romashka Management", "wheelchair": "no"}}, {"type": "node", "id": 762258306, "lat": 55.7731211, "lon": 37.6692725}, {"type": "node", "id": 762258459, "lat": 55.7731368, "lon": 37.6693773}, {"type": "node", "id": 762258767, "lat": 55.7733258, "lon": 37.6691684}, {"type": "node", "id": 813972222, "lat": 55.7554704, "lon": 37.6005392, "tags": {"amenity": "pub", "contact:phone": "+7 495 6276907", "contact:website": "http://www.john-donne.ru", "name": "\u0414\u0436\u043e\u043d \u0414\u043e\u043d\u043d", "name:en": "John Donne"}}, {"type": "node", "id": 818590944, "lat": 55.5655724, "lon": 37.5556868, "tags": {"amenity": "pub", "name": "\u0425\u043c\u0435\u043b\u0451\u0444\u0444"}}, {"type": "node", "id": 830154263, "lat": 55.7583363, "lon": 37.6398181, "tags": {"amenity": "pub", "contact:phone": "+7 495 6281519", "contact:website": "http://vobla.ru", "name": "\u0417\u043e\u043b\u043e\u0442\u0430\u044f \u0412\u043e\u0431\u043b\u0430", "name:en": "Zolotaya Vobla", "opening_hours": "24/7"}}, {"type": "node", "id": 859937042, "lat": 55.7890347, "lon": 37.748857}, {"type": "node", "id": 859938210, "lat": 55.7889822, "lon": 37.7494067}, {"type": "node", "id": 859940010, "lat": 55.7890574, "lon": 37.7494294}, {"type": "node", "id": 859940849, "lat": 55.7891099, "lon": 37.7488797}, {"type": "node", "id": 951407576, "lat": 55.7476985, "lon": 37.5882161, "tags": {"amenity": "pub", "contact:facebook": "https://www.facebook.com/UlyssesMoscow", "contact:phone": "+7 499 2418799", "contact:website": "http://www.ulysses.pub", "name": "Ulysses", "opening_hours": "Mo-Su 12:00-23:45"}}, {"type": "node", "id": 979291014, "lat": 55.8156723, "lon": 37.6394595, "tags": {"addr:city": "\u041c\u043e\u0441\u043a\u0432\u0430", "addr:housenumber": "124 \u043a4", "addr:street": "\u043f\u0440\u043e\u0441\u043f\u0435\u043a\u0442 \u041c\u0438\u0440\u0430", "amenity": "pub", "level": "0", "name": "\u0411\u0438\u0440\u0445\u0430\u0443\u0441", "opening_hours": "12:00-23:00", "smoking": "outside"}}, {"type": "node", "id": 1003810261, "lat": 55.6817091, "lon": 37.8964192, "tags": {"amenity": "pub"}}, {"type": "node", "id": 1049489395, "lat": 55.9025831, "lon": 37.5860097}, {"type": "node", "id": 1049489404, "lat": 55.9025139, "lon": 37.5859974}, {"type": "node", "id": 1049489415, "lat": 55.9025198, "lon": 37.5858913}, {"type": "node", "id": 1049489420, "lat": 55.902589, "lon": 37.5859036}, {"type": "node", "id": 1078322809, "lat": 55.6226068, "lon": 37.7052147, "tags": {"amenity": "pub", "name": "\u041a\u0440\u044b\u043b\u044c\u044f"}}, {"type": "node", "id": 1098460309, "lat": 55.7675891, "lon": 37.6352736, "tags": {"amenity": "pub", "contact:phone": "+7 495 6080383", "contact:website": "http://www.bobbydazzler.ru", "name": "Bobby Dazzler", "opening_hours": "Mo-Th 11:00-24:00; Fr 11:00-03:00; Sa 13:00-06:00; Su 13:00-24:00"}}, {"type": "node", "id": 1098868819, "lat": 55.7625156, "lon": 37.634405, "tags": {"amenity": "pub", "contact:phone": "+7 495 6244696", "contact:website": "http://www.molliespub.ru", "name": "Mollie's Pub", "opening_hours": "Mo,Su 12:00-24:00; Tu-Th 00:00-01:00,12:00-24:00; Fr,Sa 00:00-03:00,12:00-24:00"}}, {"type": "node", "id": 1102159061, "lat": 55.9399479, "lon": 37.496348, "tags": {"amenity": "pub", "name": "7 \u0431\u043e\u0447\u0435\u043a", "opening_hours": "11:00-23:00"}}, {"type": "node", "id": 1142038127, "lat": 55.7445693, "lon": 37.6273469, "tags": {"amenity": "pub", "contact:phone": "+7 495 9533992", "contact:website": "http://pjpub.ru", "internet_access": "wlan", "internet_access:fee": "no", "name": "Punch & Judy", "name:ru": "\u041f\u0430\u043d\u0447 \u0438 \u0414\u0436\u0443\u0434\u0438", "opening_hours": "Mo-Su 12:00-24:00; Fr,Sa 12:00-06:00", "wheelchair": "limited"}}, {"type": "node", "id": 1204413510, "lat": 55.781581, "lon": 37.7078462, "tags": {"amenity": "pub", "name": "\u0421\u041f\u0411"}}, {"type": "node", "id": 1226435939, "lat": 55.6535401, "lon": 37.620576, "tags": {"amenity": "pub", "name": "Carlsberg", "wheelchair": "yes"}}, {"type": "node", "id": 1249940930, "lat": 55.8028864, "lon": 37.5253831, "tags": {"addr:housenumber": "64", "addr:street": "\u041b\u0435\u043d\u0438\u043d\u0433\u0440\u0430\u0434\u0441\u043a\u0438\u0439 \u043f\u0440\u043e\u0441\u043f\u0435\u043a\u0442", "amenity": "pub", "contact:phone": "+7 499 1516710;+7 499 1510722", "contact:website": "http://www.churchillspub.ru", "delivery": "yes", "name": "\u0427\u0435\u0440\u0447\u0438\u043b\u043b\u044c", "name:en": "Churchill's", "opening_hours": "Mo-Su 12:00-23:00", "outdoor_seating": "no"}}, {"type": "node", "id": 1288274036, "lat": 55.8436163, "lon": 37.3640323, "tags": {"amenity": "pub", "contact:instagram": "https://www.instagram.com/barkabmitino/", "contact:phone": "+7 916 3639003", "delivery": "yes", "name": "\u0411\u0430\u0440#\u041a\u0430\u0431"}}, {"type": "node", "id": 1295485139, "lat": 55.6561439, "lon": 37.5977732, "tags": {"amenity": "pub", "name": "\u041d\u0438\u0430\u0433\u0430\u0440\u0430", "website": "http://www.niagara-club.ru/"}}, {"type": "node", "id": 1298330794, "lat": 55.7939217, "lon": 37.4947688, "tags": {"amenity": "pub", "layer": "-1", "name": "\u0418\u043d\u0442\u0435\u0440\u043f\u0430\u0431", "opening_hours": "Mo-We 12:00-24:00; Fr-Sa 12:00-00:05, Su 12:00-24:00", "smoking": "separated", "website": "http://www.interpab.ru"}}, {"type": "node", "id": 1300404465, "lat": 55.646632, "lon": 37.7459974, "tags": {"amenity": "pub", "name": "\u0410\u043b\u0430\u0434\u0434\u0438\u043d", "sport": "billiards"}}, {"type": "node", "id": 1352490952, "lat": 55.7452543, "lon": 37.6307187, "tags": {"addr:city": "\u041c\u043e\u0441\u043a\u0432\u0430", "addr:housenumber": "1 \u044113", "addr:postcode": "115184", "addr:street": "\u0421\u0440\u0435\u0434\u043d\u0438\u0439 \u041e\u0432\u0447\u0438\u043d\u043d\u0438\u043a\u043e\u0432\u0441\u043a\u0438\u0439 \u043f\u0435\u0440\u0435\u0443\u043b\u043e\u043a", "amenity": "pub", "brewery": "Guinness;various", "contact:phone": "+7 495 9550556", "contact:website": "http://www.belfast-pub.ru", "description": "\u0418\u0440\u043b\u0430\u043d\u0434\u0441\u043a\u0438\u0439 \u0434\u0435\u0440\u0435\u0432\u0435\u043d\u0441\u043a\u0438\u0439 \u043f\u0430\u0431", "name": "\u0411\u0435\u043b\u0444\u0430\u0441\u0442", "name:en": "Belfast", "opening_hours": "Mo-Th 12:00-24:00; Fr 12:00-02:00; Sa 15:00-02:00; Su 15:00-24:00", "payment:cash": "yes", "payment:credit_cards": "yes", "payment:debit_cards": "yes", "payment:mastercard": "yes", "payment:visa": "yes", "phone": "+7 926 9471287", "website": "http://belfast-pub.ru/"}}, {"type": "node", "id": 1388698986, "lat": 55.8496787, "lon": 37.4223558, "tags": {"addr:housenumber": "13 \u043a2", "addr:street": "\u0422\u0443\u0440\u0438\u0441\u0442\u0441\u043a\u0430\u044f \u0443\u043b\u0438\u0446\u0430", "amenity": "pub", "name": "Bier\u041b\u043e\u0433\u0430"}}, {"type": "node", "id": 1394761600, "lat": 55.7436282, "lon": 37.6302444, "tags": {"addr:housenumber": "18", "addr:street": "\u0411\u043e\u043b\u044c\u0448\u043e\u0439 \u041e\u0432\u0447\u0438\u043d\u043d\u0438\u043a\u043e\u0432\u0441\u043a\u0438\u0439 \u043f\u0435\u0440\u0435\u0443\u043b\u043e\u043a", "amenity": "pub", "name": "\u0413\u0440\u043e\u0441\u0441\u0431\u0438\u0440", "opening_hours": "Mo-Fr 11:00-24:00; Sa-Su 12:00-24:00", "phone": "+7 499 2388832", "website": "http://www.grossbeer.ru/"}}, {"type": "node", "id": 1417517782, "lat": 55.7417745, "lon": 37.6164281, "tags": {"amenity": "pub", "name": "Sally O'Brien's"}}, {"type": "node", "id": 1474863007, "lat": 55.6423755, "lon": 37.5243508, "tags": {"amenity": "pub", "brand": "\u041f\u043e\u043b\u043d\u0430\u044f \u043a\u0440\u0443\u0436\u043a\u0430", "brand:wikidata": "Q6439558", "brand:wikipedia": "ru:\u041a\u0440\u0443\u0436\u043a\u0430 (\u0441\u0435\u0442\u044c \u0440\u0435\u0441\u0442\u043e\u0440\u0430\u043d\u043e\u0432)", "contact:website": "https://polnayakruzhka.ru/", "craft_beer": "yes", "diet:vegetarian": "no", "internet_access": "wlan", "internet_access:fee": "no", "name": "\u041f\u043e\u043b\u043d\u0430\u044f \u043a\u0440\u0443\u0436\u043a\u0430", "name:ru": "\u041f\u043e\u043b\u043d\u0430\u044f \u043a\u0440\u0443\u0436\u043a\u0430", "phone": "+7 499 9406309", "smoking": "yes"}}, {"type": "node", "id": 1482345383, "lat": 55.6186478, "lon": 37.7145526, "tags": {"amenity": "pub", "internet_access": "wlan", "internet_access:fee": "no", "name": "\u0418\u043d\u0442\u0435\u0440", "opening_hours": "Mo-Su 12:00-24:00"}}, {"type": "node", "id": 1497285182, "lat": 55.6809247, "lon": 37.5567027, "tags": {"amenity": "pub", "cuisine": "irish", "internet_access": "wlan", "level": "-1", "name": "\u041a\u043e\u043d\u043e\u0440 \u041c\u0430\u043a \u041d\u0435\u0441\u0441\u0430", "opening_hours": "Mo-Fr 12:00-03:00; Sa-Su 12:00-01:00", "phone": "+7 499 7245827", "website": "http://www.conor-pub.ru/"}}, {"type": "node", "id": 1521698873, "lat": 55.7423846, "lon": 37.6522932, "tags": {"amenity": "pub", "brand": "\u041f\u043e\u043b\u043d\u0430\u044f \u043a\u0440\u0443\u0436\u043a\u0430", "brand:wikidata": "Q6439558", "brand:wikipedia": "ru:\u041a\u0440\u0443\u0436\u043a\u0430 (\u0441\u0435\u0442\u044c \u0440\u0435\u0441\u0442\u043e\u0440\u0430\u043d\u043e\u0432)", "check_date": "2022-06-07", "contact:website": "https://polnayakruzhka.ru/", "craft_beer": "yes", "diet:vegetarian": "no", "internet_access": "wlan", "name": "\u041f\u043e\u043b\u043d\u0430\u044f \u043a\u0440\u0443\u0436\u043a\u0430", "name:ru": "\u041f\u043e\u043b\u043d\u0430\u044f \u043a\u0440\u0443\u0436\u043a\u0430", "opening_hours": "Mo-Su 12:00-23:55"}}, {"type": "node", "id": 1589680043, "lat": 55.8916628, "lon": 37.6226273, "tags": {"amenity": "pub", "name": "\u0417\u0430\u0440\u044f"}}, {"type": "node", "id": 1654385524, "lat": 55.8055845, "lon": 37.6356224, "tags": {"amenity": "pub", "name": "\u0414\u0436\u043e\u043d\u043d\u0438 \u0413\u0440\u0438\u043d \u041f\u0430\u0431", "opening_hours": "24/7"}}, {"type": "node", "id": 1666841208, "lat": 55.7483155, "lon": 37.5833995, "tags": {"amenity": "pub", "contact:phone": "+7 499 2410644", "contact:website": "http://rmcom.ru/page-john-bull", "name": "\u0414\u0436\u043e\u043d \u0411\u0443\u043b\u043b", "name:en": "John Bull Pub", "operator": "\u0420\u043e\u043c\u0430\u0448\u043a\u0430 \u041c\u0435\u043d\u0435\u0434\u0436\u043c\u0435\u043d\u0442"}}, {"type": "node", "id": 1696030916, "lat": 55.8473323, "lon": 37.4389208, "tags": {"addr:housenumber": "31", "addr:street": "\u0421\u0445\u043e\u0434\u043d\u0435\u043d\u0441\u043a\u0430\u044f \u0443\u043b\u0438\u0446\u0430", "amenity": "pub", "check_date:opening_hours": "2022-10-18", "indoor_seating": "yes", "name": "69 Pints", "opening_hours:signed": "no", "outdoor_seating": "no"}}, {"type": "node", "id": 1701548938, "lat": 55.823677, "lon": 37.6348558, "tags": {"amenity": "pub", "contact:phone": "+7 499 7603556", "contact:website": "http://www.village-pub.ru", "fixme": "\u043f\u0440\u043e\u0432\u0435\u0440\u0438\u0442\u044c, \u0447\u0442\u043e \u0432\u0441\u0435 \u0435\u0449\u0435 \u0442\u0430\u043c. \u041f\u043e\u0445\u043e\u0436\u0435, \u0442\u0435\u043f\u0435\u0440\u044c \u0442\u0430\u043c \u0442\u043e\u043b\u044c\u043a\u043e Burger King", "name": "\u0412\u0438\u043b\u043b\u0430\u0434\u0436-\u041f\u0430\u0431", "name:en": "Village Pub", "opening_hours": "Mo-Su 11:30-24:00; Fr-Sa 11:30-02:00"}}, {"type": "node", "id": 1717793881, "lat": 55.7288978, "lon": 37.6175784, "tags": {"addr:housenumber": "11", "addr:street": "\u0443\u043b\u0438\u0446\u0430 \u041a\u043e\u0440\u043e\u0432\u0438\u0439 \u0412\u0430\u043b", "amenity": "pub", "contact:phone": "+7 499 2301185", "contact:website": "http://www.rmcom.ru/page-molly-gwynns", "name": "\u041c\u043e\u043b\u043b\u0438 \u0413\u0432\u0438\u043d\u043d'\u0437", "name:en": "Molly Gwynn\u2019s", "opening_hours": "Mo-Th 12:00-24:00; Fr,Sa 12:00-02:00; Su 12:00-24:00", "operator": "Romashka Management", "website": "http://www.rmcom.ru/page-molly-gwynns", "wheelchair": "yes"}}, {"type": "node", "id": 1724246610, "lat": 55.7670128, "lon": 37.631683, "tags": {"amenity": "pub", "name": "\u041a\u043e\u0437\u043b\u043e\u0432\u0438\u0446\u0430", "opening_hours": "Mo-Su 12:00-22:00", "phone": "+7 495 6216164", "website": "http://www.kozlovica.ru/"}}, {"type": "node", "id": 1756961154, "lat": 55.7653031, "lon": 37.6216926, "tags": {"amenity": "pub", "contact:facebook": "https://www.facebook.com/unionjackkisel", "contact:instagram": "https://www.instagram.com/englishpubunionjack/", "contact:phone": "+7 495 6211963", "contact:website": "http://unionj.su", "int_name": "Union Jack", "internet_access": "no", "name": "Union Jack", "opening_hours": "Mo-Su 12:00-23:00"}}, {"type": "node", "id": 1836488169, "lat": 55.5471495, "lon": 37.5532343, "tags": {"amenity": "pub", "name": "\u041a\u0440\u0443\u0436\u043a\u0430", "opening_hours": "Mo-Su 12:00-23:00"}}, {"type": "node", "id": 1856682825, "lat": 55.7890011, "lon": 37.6102076, "tags": {"amenity": "pub", "name": "\u041b\u043e\u043a\u043e"}}, {"type": "node", "id": 1864400471, "lat": 55.7745915, "lon": 37.6423753, "tags": {"amenity": "pub", "name": "\u041d\u0430 \u0431\u0440\u0443\u0434\u0435\u0440\u0448\u0430\u0444\u0442"}}, {"type": "node", "id": 1883798481, "lat": 55.7944316, "lon": 37.705914, "tags": {"amenity": "pub", "check_date:opening_hours": "2022-06-29", "contact:facebook": "https://facebook.com/groups/BostonPartyPub/", "contact:vk": "http://vk.com/club19272615", "description": "\u0418\u0440\u043b\u0430\u043d\u0434\u0441\u043a\u0438\u0439 \u043f\u0430\u0431 Lock Stock", "email": "bostonpartypub@gmail.com", "indoor_seating": "yes", "internet_access": "wlan", "name": "\u041b\u043e\u043a \u0421\u0442\u043e\u043a", "name:en": "Lock Stock", "name:ru": "\u041b\u043e\u043a \u0421\u0442\u043e\u043a", "opening_hours": "Mo-Su 12:00-23:00", "outdoor_seating": "no", "phone": "+7 495 9643301", "website": "http://\u043b\u043e\u043a\u0441\u0442\u043e\u043a.\u0440\u0444"}}, {"type": "node", "id": 1948912857, "lat": 55.8044814, "lon": 37.6379325, "tags": {"amenity": "pub", "name": "Beer\u043b\u043e\u0433\u0430"}}, {"type": "node", "id": 2036568107, "lat": 55.88526, "lon": 37.6056083, "tags": {"amenity": "pub", "name": "\u041a\u043b\u0430\u0434\u043e\u0432\u0430\u044f \u0441\u043e\u043b\u043d\u0446\u0430"}}, {"type": "node", "id": 2093478747, "lat": 55.7933445, "lon": 37.8417485, "tags": {"amenity": "pub", "name": "\u041f\u0435\u0445\u043e\u0440\u043a\u0430"}}, {"type": "node", "id": 2125969465, "lat": 55.7733425, "lon": 37.6692816}, {"type": "node", "id": 2169286258, "lat": 55.8859347, "lon": 37.6845411, "tags": {"amenity": "pub", "name": "\u0428\u0430\u0440\u043e\u0432\u043d\u044f"}}, {"type": "node", "id": 2214457504, "lat": 55.756476, "lon": 37.6271334, "tags": {"amenity": "pub", "contact:phone": "+7 495 6257980", "contact:website": "http://ospub.ru/", "name": "Oldschool", "opening_hours": "24/7", "wheelchair": "no"}}, {"type": "node", "id": 2290923319, "lat": 55.752623, "lon": 37.6679617, "tags": {"amenity": "pub", "contact:phone": "+7 926 3583676", "contact:website": "https://www.facebook.com/edwardspub", "name": "Edward's Pub", "opening_hours": "Mo-We 10:00-22:00; Th-Su 10:00-06:00"}}, {"type": "node", "id": 2290923325, "lat": 55.7599619, "lon": 37.6315765, "tags": {"amenity": "pub", "contact:phone": "+7 495 6213797", "contact:website": "http://dp-pub.ru", "name": "Dark Patrick's", "opening_hours": "Su-Th 12:00-24:00, Fr,Sa 12:00-03:00", "smoking": "no"}}, {"type": "node", "id": 2300250413, "lat": 55.6546648, "lon": 37.5392117, "tags": {"amenity": "pub", "contact:phone": "+7 965 2841505", "contact:website": "http://barspb.ru", "name": "S\u041f\u0411", "opening_hours": "Mo-Su 12:00-24:00; Fr,Sa 12:00-05:00"}}, {"type": "node", "id": 2300554197, "lat": 55.6749982, "lon": 37.5053823, "tags": {"amenity": "pub"}}, {"type": "node", "id": 2323146120, "lat": 55.6690745, "lon": 37.8750187, "tags": {"addr:city": "\u041b\u044e\u0431\u0435\u0440\u0446\u044b", "addr:housenumber": "13\u0410", "addr:postcode": "140011", "addr:street": "\u042e\u0431\u0438\u043b\u0435\u0439\u043d\u0430\u044f \u0443\u043b\u0438\u0446\u0430", "amenity": "pub", "name": "Beer Hall"}}, {"type": "node", "id": 2332915151, "lat": 55.6682329, "lon": 37.8827967, "tags": {"amenity": "pub"}}, {"type": "node", "id": 2381059895, "lat": 55.8069196, "lon": 37.5031898, "tags": {"amenity": "pub", "brand": "\u041a\u0440\u0443\u0436\u043a\u0430", "brand:wikidata": "Q6439558", "brand:wikipedia": "ru:\u041a\u0440\u0443\u0436\u043a\u0430 (\u0441\u0435\u0442\u044c \u0440\u0435\u0441\u0442\u043e\u0440\u0430\u043d\u043e\u0432)", "contact:facebook": "https://www.facebook.com/KRUZHKA.MOSCOW", "contact:instagram": "https://www.instagram.com/kruzhkaru", "contact:phone": "+7 499 1581610", "contact:twitter": "https://twitter.com/Kruzhkaru", "contact:website": "http://www.kruzhka.ru", "craft_beer": "yes", "diet:vegetarian": "no", "internet_access": "wlan", "internet_access:fee": "no", "name": "\u041a\u0440\u0443\u0436\u043a\u0430", "name:ru": "\u041a\u0440\u0443\u0436\u043a\u0430", "opening_hours": "Mo-Su 12:00-24:00"}}, {"type": "node", "id": 2400135090, "lat": 55.766156, "lon": 37.6399326, "tags": {"addr:city": "\u041c\u043e\u0441\u043a\u0432\u0430", "addr:housenumber": "38 \u04411", "addr:street": "\u041c\u044f\u0441\u043d\u0438\u0446\u043a\u0430\u044f \u0443\u043b\u0438\u0446\u0430", "amenity": "pub", "contact:instagram": "https://www.instagram.com/wolfpack_bar/", "contact:phone": "+7 906 7302282", "name": "\u0412\u043e\u043b\u0447\u044c\u044f \u0441\u0442\u0430\u044f"}}, {"type": "node", "id": 2412093665, "lat": 55.7400114, "lon": 37.6159767, "tags": {"amenity": "pub", "contact:phone": "+7 495 7781874", "contact:website": "http://www.rmcom.ru/page-william-bass", "name": "\u0412\u0438\u043b\u044c\u044f\u043c \u0411\u0430\u0441\u0441"}}, {"type": "node", "id": 2437967681, "lat": 55.6696224, "lon": 37.5526533, "tags": {"amenity": "pub", "contact:phone": "+7 495 9725353", "contact:website": "http://www.bierschtolz.ru", "cuisine": "german", "level": "1", "name": "\u0411\u0438\u0440\u0448\u0442\u043e\u043b\u044c\u0446", "opening_hours": "Mo-Su 12:00-24:00"}}, {"type": "node", "id": 2451696167, "lat": 55.7433178, "lon": 37.652406, "tags": {"amenity": "pub", "check_date": "2022-06-24", "contact:phone": "+7 495 9153414", "contact:website": "http://www.john-donne.ru", "name": "\u0414\u0436\u043e\u043d \u0414\u043e\u043d\u043d", "name:en": "John Donne"}}, {"type": "node", "id": 2452855290, "lat": 55.7618722, "lon": 37.6267249, "tags": {"amenity": "pub", "contact:instagram": "https://www.instagram.com/london_grill_pub/", "contact:phone": "+7 495 6260282", "contact:website": "http://www.londongrill.ru", "name": "\u041b\u043e\u043d\u0434\u043e\u043d", "name:en": "London", "opening_hours": "Mo-Su 12:00-24:00", "wheelchair": "no"}}, {"type": "node", "id": 2453046104, "lat": 55.73285, "lon": 37.6418506, "tags": {"amenity": "pub", "contact:instagram": "https://www.instagram.com/paulanerbrauhaus", "contact:phone": "+7 495 3804808", "contact:website": "http://paulaner-brauhaus.ru", "cuisine": "german", "email": "zakazy@paulaner-brauhaus.ru", "internet_access": "wlan", "microbrewery": "yes", "name": "Paulaner Brauhaus", "name:en": "Paulaner Brauhaus", "official_name": "Paulaner Brauhaus Moscow Paveletsky", "opening_hours": "Su-Th 12:00-24:00; Fr-Sa 12:00-02:00", "wheelchair": "no"}}, {"type": "node", "id": 2461679570, "lat": 55.762534, "lon": 37.6065381, "tags": {"amenity": "pub", "contact:phone": "+7 495 6296688", "contact:website": "http://chelsea-pub.ru", "internet_access": "wlan", "internet_access:fee": "no", "name": "Chelsea", "opening_hours": "24/7"}}, {"type": "node", "id": 2509793563, "lat": 55.7628878, "lon": 37.6348296, "tags": {"amenity": "pub", "contact:facebook": "https://www.facebook.com/lionsheadmoscow", "contact:phone": "+7 495 6362818", "contact:website": "http://www.lionshead.ru", "name": "Lion's Head Pub", "opening_hours": "Su-Th 12:00-24:00, Fr,Sa 12:00-06:00"}}, {"type": "node", "id": 2514926978, "lat": 55.6926038, "lon": 37.562603, "tags": {"amenity": "pub", "description": "\u041f\u0438\u0432\u043d\u043e\u0435 \u0437\u0430\u0432\u0435\u0434\u0435\u043d\u0438\u0435"}}, {"type": "node", "id": 2565048270, "lat": 55.790521, "lon": 37.677575, "tags": {"amenity": "pub", "name": "Rainbow Pub"}}, {"type": "node", "id": 2567728655, "lat": 55.5957557, "lon": 37.6062417, "tags": {"amenity": "pub", "contact:phone": "+7 495 6176103", "contact:website": "http://shtirbeer.ru", "internet_access": "wlan", "internet_access:fee": "no", "name": "\u0428\u0442\u0438\u0440\u0411\u0438\u0440\u041b\u0438\u0446", "name:en": "ShtirBeerLitz", "opening_hours": "Mo-Su 12:00-24:00"}}, {"type": "node", "id": 2567728678, "lat": 55.7652783, "lon": 37.5614354, "tags": {"amenity": "pub", "check_date:opening_hours": "2022-03-26", "contact:phone": "+7 964 5172563", "contact:website": "http://spaten-house.ru/", "name": "\u0428\u043f\u0430\u0442\u0435\u043d \u0425\u0430\u0443\u0441", "opening_hours": "Mo-Su 11:30-23:00"}}, {"type": "node", "id": 2567728685, "lat": 55.7706376, "lon": 37.5965658, "tags": {"amenity": "pub", "contact:phone": "+7 495 6176025", "contact:website": "http://www.spaten-house.ru", "internet_access": "wlan", "internet_access:fee": "yes", "name": "\u0428\u043f\u0430\u0442\u0435\u043d-\u0425\u0430\u0443\u0441", "name:en": "spaten-house", "opening_hours": "24/7", "operator": "\u041e\u041e\u041e \"\u0426\u0435\u043d\u0442\u0440 \u043f\u0438\u0432\u0430\""}}, {"type": "node", "id": 2575496531, "lat": 55.7564087, "lon": 37.6097463, "tags": {"amenity": "pub", "contact:phone": "+7 495 6266801", "contact:website": "http://www.realpub.ru", "name": "St.Peters & St.Anton"}}, {"type": "node", "id": 2586900329, "lat": 55.7581118, "lon": 37.6121564, "tags": {"amenity": "pub", "contact:phone": "+7 916 9210148", "craft_beer": "yes", "name": "69 pints", "opening_hours": "Mo-Su 11:00-23:00"}}, {"type": "node", "id": 2658288347, "lat": 55.7711602, "lon": 37.60531, "tags": {"amenity": "pub", "contact:phone": "+7 495 4109018", "internet_access": "wlan", "name": "Bruxx", "opening_hours": "Mo-Su 12:00-02:00", "operator": "Italy Group", "website": "https://italy-group.ru/restaurants/bruxx-new-belgian-pub-moscow/"}}, {"type": "node", "id": 2668799716, "lat": 55.7720601, "lon": 37.6823618, "tags": {"amenity": "pub", "contact:phone": "+7 495 7107324", "contact:website": "http://www.oharapub.ru", "indoor_seating": "yes", "name": "\u041e'\u0425\u0430\u0440\u0430", "name:en": "O'Hara", "opening_hours": "Mo,Su 12:00-24:00; Tu-Th 12:00-01:00; Fr,Sa 12:00-03:00", "outdoor_seating": "no"}}, {"type": "node", "id": 2693211442, "lat": 55.7589965, "lon": 37.6463013, "tags": {"amenity": "pub", "contact:email": "info@oconnells.ru", "contact:instagram": "https://www.instagram.com/oconnellsmoscow", "contact:phone": "+7 985 2963090", "contact:website": "http://oconnells.ru", "internet_access": "wlan", "name": "\u041e'\u041a\u043e\u043d\u043d\u0435\u043b\u043b'\u0441 \u043f\u0430\u0431", "name:en": "O'Connell's", "name:ru": "\u041e'\u041a\u043e\u043d\u043d\u0435\u043b\u043b'\u0441 \u043f\u0430\u0431", "opening_hours": "Su-Th 12:00-23:00; Fr-Sa 12:00-05:00"}}, {"type": "node", "id": 2869711695, "lat": 55.7468709, "lon": 37.6795158, "tags": {"amenity": "pub", "level": "-1", "name": "\u0411\u043e\u0441\u0442\u043e\u043d", "smoking": "no", "wheelchair": "no"}}, {"type": "node", "id": 2896962217, "lat": 55.7772789, "lon": 37.634255, "tags": {"addr:city": "\u041c\u043e\u0441\u043a\u0432\u0430", "addr:housenumber": "26/5", "addr:street": "\u043f\u0440\u043e\u0441\u043f\u0435\u043a\u0442 \u041c\u0438\u0440\u0430", "amenity": "pub", "name": "Katie O'Shea's", "name:ru": "\u041a\u044d\u0439\u0442\u0438 \u041e'\u0428\u0435\u0430'\u0441", "official_name": "Katie O'Shea's Irish Bar & Restaurant", "opening_hours": "Mo-We 09:00-24:00; Fr-Su 10:00-03:00", "phone": "+7 495 7925188", "smoking": "outside"}}, {"type": "node", "id": 2992105965, "lat": 55.7618409, "lon": 37.624063, "tags": {"amenity": "pub", "contact:phone": "+7 495 6240710", "contact:website": "http://kuzmostpub.ru/", "name": "Kuzmost", "opening_hours": "Mo-Su 12:00-24:00"}}, {"type": "node", "id": 3002643691, "lat": 55.7619975, "lon": 37.6260365, "tags": {"amenity": "pub", "contact:facebook": "https://www.facebook.com/mandysapothecaryirishpub", "contact:phone": "+7 926 4114104", "name": "Mandy\u2019s Apothecary", "opening_hours": "Mo-Fr 00:00-02:00,12:00-24:00; Sa,Su 00:00-04:00,12:00-24:00"}}, {"type": "node", "id": 3028683361, "lat": 55.7620534, "lon": 37.6218381, "tags": {"amenity": "pub", "contact:facebook": "https://www.facebook.com/seanoneillpub", "contact:phone": "+7 495 6320131", "name": "Sean O'Neill", "opening_hours": "Su,Mo 12:00-24:00, Tu-Th 12:00-01:00, Fr,Sa 12:00-03:00"}}, {"type": "node", "id": 3183761039, "lat": 55.762391, "lon": 37.6131911, "tags": {"amenity": "pub", "contact:facebook": "https://www.facebook.com/tbpub", "contact:phone": "+7 495 6362904", "contact:website": "http://tbpub.ru", "name": "Tap&Barrel", "opening_hours": "Mo-Su 12:00-24:00; Fr,Sa 12:00-06:00"}}, {"type": "node", "id": 3184563132, "lat": 55.7700151, "lon": 37.6789812, "tags": {"amenity": "pub", "contact:phone": "+7 499 2617750", "contact:website": "http://bruggepub.com", "name": "\u0411\u0440\u044e\u0433\u0433\u0435", "name:en": "Brugge", "opening_hours": "Mo-Su 12:00-01:00; Fr,Sa 12:00-03:00"}}, {"type": "node", "id": 3226044368, "lat": 55.7035818, "lon": 37.7639428}, {"type": "node", "id": 3226044369, "lat": 55.703495, "lon": 37.7644985}, {"type": "node", "id": 3226044370, "lat": 55.7031585, "lon": 37.7643457}, {"type": "node", "id": 3226044371, "lat": 55.7032085, "lon": 37.7640001}, {"type": "node", "id": 3226063810, "lat": 55.706677, "lon": 37.7598661, "tags": {"addr:city": "\u041c\u043e\u0441\u043a\u0432\u0430", "addr:housenumber": "111", "addr:street": "\u0412\u043e\u043b\u0433\u043e\u0433\u0440\u0430\u0434\u0441\u043a\u0438\u0439 \u043f\u0440\u043e\u0441\u043f\u0435\u043a\u0442", "amenity": "pub", "name": "\u041f\u044f\u0442\u043d\u0438\u0446\u0430 \u041f\u0430\u0431"}}, {"type": "node", "id": 3234457059, "lat": 55.7621915, "lon": 37.6203592, "tags": {"amenity": "pub", "contact:phone": "+7 495 6362855", "contact:website": "http://whitehart.ru", "name": "The White Hart", "opening_hours": "Su-Th 12:00-24:00, Fr,Sa 12:00-06:00"}}, {"type": "node", "id": 3252086480, "lat": 55.6021453, "lon": 37.5553061, "tags": {"amenity": "pub"}}, {"type": "node", "id": 3338763458, "lat": 55.7648392, "lon": 37.6080731, "tags": {"addr:postcode": "125009", "amenity": "pub", "contact:instagram": "we_pub", "contact:phone": "+7 925 429 83 99", "contact:vk": "we_pub", "contact:website": "https://we-pub.ru", "cuisine": "bavarian;burger;irish;russian;sandwich", "internet_access": "wlan", "name": "White Eagles Pub", "opening_hours": "Mo-Th 12:00-24:00; Fr 12:00-02:30; Sa 15:00-02:30; Su 15:00-24:00"}}, {"type": "node", "id": 3340709806, "lat": 55.6790516, "lon": 37.5725096, "tags": {"addr:street": "\u0443\u043b\u0438\u0446\u0430 \u041a\u0440\u0436\u0438\u0436\u0430\u043d\u043e\u0432\u0441\u043a\u043e\u0433\u043e", "amenity": "pub", "contact:phone": "+7 499 7242317", "contact:website": "http://www.brazen-pub.ru", "internet_access": "wlan", "name": "\u0411\u0440\u0430\u0437\u0435\u043d", "name:en": "Brazen", "opening_hours": "Mo-Su 12:00-24:00", "phone": "+7 499 7242317", "website": "http://brazen-pub.ru"}}, {"type": "node", "id": 3342282885, "lat": 55.7522414, "lon": 37.5967487, "tags": {"addr:housenumber": "11 \u04411", "addr:street": "\u0443\u043b\u0438\u0446\u0430 \u041d\u043e\u0432\u044b\u0439 \u0410\u0440\u0431\u0430\u0442", "amenity": "pub", "contact:phone": "+7 495 9849156", "contact:website": "http://www.zhiguli.su", "cuisine": "russian", "email": "zhiguli_na11@mail.ru", "internet_access": "wlan", "name": "\u0416\u0438\u0433\u0443\u043b\u0438", "name:en": "Zhiguli", "name:ru": "\u0416\u0438\u0433\u0443\u043b\u0438", "opening_hours": "Su-Th 12:00-02:00; Fr-Sa 12:00-04:00"}}, {"type": "node", "id": 3345655528, "lat": 55.7974989, "lon": 37.6062651}, {"type": "node", "id": 3345655529, "lat": 55.7974998, "lon": 37.6064812}, {"type": "node", "id": 3345655530, "lat": 55.7975588, "lon": 37.6062643}, {"type": "node", "id": 3345655531, "lat": 55.7975596, "lon": 37.6064804}, {"type": "node", "id": 3393179646, "lat": 55.8093053, "lon": 37.40351, "tags": {"amenity": "pub", "name": "\u041a\u0440\u0443\u0436\u043a\u0430", "website": "http://kruzhka.ru/"}}, {"type": "node", "id": 3396848606, "lat": 55.7715503, "lon": 37.6820505, "tags": {"amenity": "pub", "brand": "\u041f\u043e\u043b\u043d\u0430\u044f \u043a\u0440\u0443\u0436\u043a\u0430", "brand:wikidata": "Q6439558", "brand:wikipedia": "ru:\u041a\u0440\u0443\u0436\u043a\u0430 (\u0441\u0435\u0442\u044c \u0440\u0435\u0441\u0442\u043e\u0440\u0430\u043d\u043e\u0432)", "contact:phone": "+7 495 6322010", "contact:website": "https://polnayakruzhka.ru/", "craft_beer": "yes", "diet:vegetarian": "no", "name": "\u041f\u043e\u043b\u043d\u0430\u044f \u043a\u0440\u0443\u0436\u043a\u0430", "name:ru": "\u041f\u043e\u043b\u043d\u0430\u044f \u043a\u0440\u0443\u0436\u043a\u0430", "opening_hours": "Mo-Fr 12:00-24:00; Sa,Su 00:00-04:00,12:00-24:00"}}, {"type": "node", "id": 3410453523, "lat": 55.7689659, "lon": 37.6248713, "tags": {"amenity": "pub", "contact:phone": "+7 905 7640444", "contact:website": "http://www.pigandrose.me/", "name": "\u0421\u0432\u0438\u043d\u044c\u044f \u0438 \u0440\u043e\u0437\u0430", "opening_hours": "Mo-Fr 11:00-24:00; Sa,Su 00:00-02:00,11:00-24:00"}}, {"type": "node", "id": 3514104104, "lat": 55.7648086, "lon": 37.7011374, "tags": {"amenity": "pub", "name": "Pub Daddy"}}, {"type": "node", "id": 3656471078, "lat": 55.7573195, "lon": 37.6024977, "tags": {"amenity": "pub", "contact:facebook": "https://www.facebook.com/bigjimsmoscow/", "contact:phone": "+7 495 1392577", "contact:website": "http://bjpub.ru/", "name": "Big Jim\u2019s", "opening_hours": "Mo-Fr 12:00-24:00; Sa,Su 00:00-03:00,12:00-24:00"}}, {"type": "node", "id": 3677581493, "lat": 55.7481237, "lon": 37.7751608, "tags": {"amenity": "pub", "name": "\u041f\u0435\u043d\u043d\u0430\u044f \u0433\u0430\u043b\u0435\u0440\u0435\u044f - \u0420\u0430\u0431\u043e\u0447\u0438\u0439 \u043a\u043b\u0430\u0441\u0441"}}, {"type": "node", "id": 3678991871, "lat": 55.6536236, "lon": 37.6078681, "tags": {"addr:city": "\u041c\u043e\u0441\u043a\u0432\u0430", "addr:housenumber": "18 \u043a\u0410", "addr:street": "\u0427\u043e\u043d\u0433\u0430\u0440\u0441\u043a\u0438\u0439 \u0431\u0443\u043b\u044c\u0432\u0430\u0440", "amenity": "pub", "contact:facebook": "https://www.facebook.com/groups/pivoteka465", "contact:vk": "https://vk.com/pivoteka465", "contact:website": "http://pivoteka465.ru", "craft_beer": "yes", "drink": "beer", "name": "\u041f\u0438\u0432\u043e\u0442\u0435\u043a\u0430 465", "opening_hours": "Mo-Fr 14:00-24:00; Sa-Su 13:00-24:00", "phone": "+7 495 1506465 \u0442\u0435\u043b\u0435\u0444\u043e\u043d \u0441\u0435\u0442\u0438;+7 977 8360465 \u0442\u0435\u043b\u0435\u0444\u043e\u043d \u0431\u0430\u0440\u0430"}}, {"type": "node", "id": 3679274769, "lat": 55.7647806, "lon": 37.65473, "tags": {"amenity": "pub", "contact:instagram": "https://www.instagram.com/silversirishpub/", "contact:phone": "+7 495 9171770", "name": "\u0421\u0438\u043b\u044c\u0432\u0435\u0440'\u0441", "name:en": "Silver's", "opening_hours": "Mo-Su 10:00-24:00"}}, {"type": "node", "id": 3699841065, "lat": 55.7310154, "lon": 37.5891494, "tags": {"amenity": "pub", "contact:phone": "+7 499 2457372", "contact:website": "http://snootyfoxpub.ru/", "name": "Snooty Fox", "opening_hours": "Mo-Sa 11:00-19:00", "wheelchair": "no"}}, {"type": "node", "id": 3727965746, "lat": 55.682974, "lon": 37.8446029, "tags": {"addr:housenumber": "59", "addr:street": "\u041f\u0440\u0438\u0432\u043e\u043b\u044c\u043d\u0430\u044f \u0443\u043b\u0438\u0446\u0430", "amenity": "pub", "name": "\u0411\u0440\u0443\u0434\u0435\u0440 \u043d\u0430 \u041f\u0440\u0438\u0432\u043e\u043b\u044c\u043d\u043e\u0439", "website": "http://julebino.beerbruder.ru/", "wheelchair": "yes"}}, {"type": "node", "id": 3744149102, "lat": 55.7651238, "lon": 37.6023565, "tags": {"amenity": "pub", "check_date:opening_hours": "2022-03-02", "contact:email": "info@crafterbar.ru", "contact:facebook": "https://www.facebook.com/crafterbar", "contact:instagram": "https://www.instagram.com/crafter_bar", "contact:phone": "+7 968 0298842", "contact:vk": "https://vk.com/crafterbar", "contact:website": "http://www.crafterbar.ru", "craft_beer": "yes", "cuisine": "burger", "drink:beer": "draught", "drink:soft_drink": "served", "level": "2", "name": "Crafter", "name:en": "Crafter", "opening_hours": "Mo-Su 12:00-24:00", "operator": "\u041e\u041e\u041e \"\u041a\u0440\u0430\u0444\u0442\"", "payment:android_pay": "no", "payment:cash": "yes", "payment:maestro": "yes", "payment:mastercard": "yes", "payment:visa": "yes", "payment:visa_electron": "yes", "takeaway": "yes", "wheelchair": "no"}}, {"type": "node", "id": 3783462258, "lat": 55.777158, "lon": 37.5852015, "tags": {"amenity": "pub", "contact:phone": "+7 499 5750024", "contact:website": "http://www.facebook.com/paddysmoscow/", "cuisine": "irish", "internet_access": "wlan", "name": "Paddy's", "official_name": "Paddy's Irish Pub & Eatery", "opening_hours": "Mo-Th 11:00-23:00; Fr 11:00-24:00; Sa 00:00-03:00,12:00-24:00; Su 00:00-03:00,12:00-23:00"}}, {"type": "node", "id": 3806341997, "lat": 55.8159627, "lon": 37.3683525, "tags": {"amenity": "pub", "contact:phone": "+7 926 4745441", "name": "Old Irish Pub", "opening_hours": "Mo-Fr 14:00-23:00; Sa,Su 12:00-23:00"}}, {"type": "node", "id": 3808185865, "lat": 55.7827402, "lon": 37.7051051, "tags": {"amenity": "pub", "check_date": "2022-10-09", "contact:facebook": "https://www.facebook.com/Rolling-Barrels-930566750368289", "contact:phone": "+7 909 9369414", "name": "Rolling Barrels", "opening_hours": "Mo-Su 11:00-23:00"}}, {"type": "node", "id": 3810295772, "lat": 55.7731287, "lon": 37.6693223, "tags": {"entrance": "main"}}, {"type": "node", "id": 3810295788, "lat": 55.7732307, "lon": 37.6693336}, {"type": "node", "id": 3818709630, "lat": 55.7718202, "lon": 37.6194293, "tags": {"amenity": "pub", "contact:facebook": "https://www.facebook.com/NaKranah", "contact:phone": "+7 915 1773787", "indoor_seating": "yes", "name": "\u041d\u0430 \u043a\u0440\u0430\u043d\u0430\u0445", "opening_hours": "Sa 14:00-06:00; Su 14:00-24:00; Mo-Th 12:00-24:00; Fr 12:00-03:00", "operator": "\u041c\u0438\u0445\u0430\u0438\u043b \u0413\u0443\u043a\u0430\u0441\u044f\u043d", "outdoor_seating": "yes", "website": "https://instagram.com/nakranakh"}}, {"type": "node", "id": 3860850320, "lat": 55.7805449, "lon": 37.6017665, "tags": {"amenity": "pub", "contact:facebook": "https://www.facebook.com/pubtipsy", "contact:phone": "+7 495 6362902", "name": "The Tipsy Pub", "opening_hours": "Mo-Fr 08:00-24:00; Sa 00:00-06:00,12:00-24:00; Su 00:00-03:00,12:00-24:00"}}, {"type": "node", "id": 3868109818, "lat": 55.8182534, "lon": 37.3721194, "tags": {"amenity": "pub", "contact:phone": "+7 967 2637482", "contact:website": "http://vk.com/club92832389", "name": "Beero-Mir"}}, {"type": "node", "id": 3878566053, "lat": 55.7112947, "lon": 37.6122014, "tags": {"amenity": "pub", "check_date:opening_hours": "2021-12-01", "indoor_seating": "yes", "level": "-1", "name": "\u0420\u0435\u0441\u0442\u043e\u0440\u0430\u043d\u0447\u0438\u043a \u0424\u0440\u0430\u0443 \u0428\u043d\u0430\u043f\u0441\u0431\u0438\u0440", "opening_hours": "Mo-Su 12:00-23:00", "outdoor_seating": "no", "phone": "+7 495 7899277", "website": "www.frau-shnapsbir.ru", "wheelchair": "no"}}, {"type": "node", "id": 3946173957, "lat": 55.8352269, "lon": 37.4906755, "tags": {"amenity": "pub", "contact:phone": "+7 925 8667873", "craft_beer": "yes", "name": "Beertep Craft Pub", "opening_hours": "Mo-Su 15:00-24:00"}}, {"type": "node", "id": 3952575080, "lat": 55.808348, "lon": 37.4944833, "tags": {"amenity": "pub", "contact:phone": "+7 499 1589136", "contact:website": "http://www.bukingempab.ru", "name": "\u0411\u0443\u043a\u0438\u043d\u0433\u0435\u043c"}}, {"type": "node", "id": 3955834776, "lat": 55.7973508, "lon": 37.7995727, "tags": {"amenity": "pub", "contact:phone": "+7 495 9656923", "name": "Black Cat Pub", "opening_hours": "Mo-Su 12:00-23:00"}}, {"type": "node", "id": 4019793520, "lat": 55.7998165, "lon": 37.5318305, "tags": {"amenity": "pub", "contact:phone": "+7 926 5731420", "contact:website": "http://www.wildtony.ru/", "craft_beer": "yes", "name": "Wild Tony", "opening_hours": "Mo-Fr 12:00-24:00; Sa 00:00-02:00,12:00-24:00; Su 00:00-02:00,14:00-23:00"}}, {"type": "node", "id": 4065308040, "lat": 55.7336634, "lon": 37.5638947, "tags": {"amenity": "pub", "contact:facebook": "https://www.facebook.com/nemetspub", "contact:phone": "+7 499 6783191", "name": "\u041d\u0435\u043c\u0435\u0446-\u041f\u0435\u0440\u0435\u0446. \u041a\u043e\u043b\u0431\u0430\u0441\u0430", "opening_hours": "Mo-Su 12:00-24:00"}}, {"type": "node", "id": 4073902590, "lat": 55.8010669, "lon": 37.636731, "tags": {"amenity": "pub", "name": "Beef time"}}, {"type": "node", "id": 4084755897, "lat": 55.6775057, "lon": 37.6517123, "tags": {"addr:street": "\u0443\u043b\u0438\u0446\u0430 \u0421\u0430\u0434\u043e\u0432\u043d\u0438\u043a\u0438", "amenity": "pub"}}, {"type": "node", "id": 4097133123, "lat": 55.7413936, "lon": 37.4176169, "tags": {"addr:city": "\u041c\u043e\u0441\u043a\u0432\u0430", "addr:housenumber": "32", "addr:street": "\u042f\u0440\u0446\u0435\u0432\u0441\u043a\u0430\u044f \u0443\u043b\u0438\u0446\u0430", "amenity": "pub", "contact:facebook": "https://www.facebook.com/groups/pivoteka465", "contact:phone": "+7 926 5532148", "contact:vk": "https://vk.com/pivoteka465", "contact:website": "http://pivoteka465.ru", "craft_beer": "yes", "drink": "beer", "name": "\u041f\u0438\u0432\u043e\u0442\u0435\u043a\u0430 465", "opening_hours": "Mo-Su 12:00-24:00"}}, {"type": "node", "id": 4113775912, "lat": 55.8092044, "lon": 37.3262751, "tags": {"amenity": "pub", "name": "\u0412\u0441\u0435 \u0441\u0432\u043e\u0438"}}, {"type": "node", "id": 4124617210, "lat": 55.8567596, "lon": 37.4929272, "tags": {"amenity": "pub", "internet_access": "wlan", "name": "\u0419\u043e\u0440\u043a\u0448\u0438\u0440", "opening_hours": "Mo-Su 12:00-01:00"}}, {"type": "node", "id": 4127644191, "lat": 55.7078908, "lon": 37.7434553, "tags": {"amenity": "pub", "name": "\u041f\u0438\u0432\u043d\u0430\u044f \u043d\u0430 11-\u043e\u0439"}}, {"type": "node", "id": 4144804890, "lat": 55.8183558, "lon": 37.5739085, "tags": {"amenity": "pub", "internet_access": "wlan", "name": "\u0421\u0432\u0430\u0440\u043d\u044f", "opening_hours": "Su-Th 11:00-23:00; Fr-Sa 12:00-02:00", "phone": "+7 495 2520015", "website": "http://www.svarnya.ru"}}, {"type": "node", "id": 4195579792, "lat": 55.8556158, "lon": 37.4762569, "tags": {"amenity": "pub", "brand": "\u041a\u0440\u0443\u0436\u043a\u0430", "contact:phone": "+7 495 9830109", "contact:website": "http://www.kruzhka.ru", "diet:vegetarian": "no", "internet_access": "wlan", "internet_access:fee": "no", "name": "\u041a\u0440\u0443\u0436\u043a\u0430", "name:en": "Kruzhka", "name:ru": "\u041a\u0440\u0443\u0436\u043a\u0430", "opening_hours": "Mo-Fr 00:00-01:00,10:00-24:00; Sa,Su 00:00-04:00,10:00-24:00"}}, {"type": "node", "id": 4230075355, "lat": 55.7495537, "lon": 37.7169221, "tags": {"amenity": "pub", "name": "\u041d\u043e\u0440\u0430", "opening_hours": "12:00-23:00"}}, {"type": "node", "id": 4231626328, "lat": 55.768389, "lon": 37.6324038, "tags": {"addr:city": "\u041c\u043e\u0441\u043a\u0432\u0430", "addr:housenumber": "16/2", "addr:street": "\u0443\u043b\u0438\u0446\u0430 \u0421\u0440\u0435\u0442\u0435\u043d\u043a\u0430", "amenity": "pub", "contact:instagram": "https://www.instagram.com/22pub/", "contact:phone": "+7 495 6212927", "contact:website": "http://22pub.ru/", "name": "2:2"}}, {"type": "node", "id": 4261811914, "lat": 55.7733398, "lon": 37.669263, "tags": {"entrance": "service"}}, {"type": "node", "id": 4319784893, "lat": 55.9405108, "lon": 37.503025, "tags": {"amenity": "pub", "craft_beer": "yes", "internet_access": "wlan", "name": "Garage"}}, {"type": "node", "id": 4340336004, "lat": 55.7851619, "lon": 37.5218887, "tags": {"amenity": "pub", "name": "\u0412\u0438\u043a\u0442\u043e\u0440\u0438\u044f&\u0410\u043b\u044c\u0431\u0435\u0440\u0442", "opening_hours": "Mo-Su 10:00-24:00", "phone": "+7 495 5140865", "website": "http://vapub.ru"}}, {"type": "node", "id": 4453628434, "lat": 55.6802582, "lon": 37.6251269, "tags": {"amenity": "pub", "contact:facebook": "https://www.facebook.com/%D0%9A%D0%B0%D1%84%D0%B5-%D0%B1%D0%B0%D1%80-%D0%A1%D0%B0%D0%BB%D1%8E%D1%82-302161750150910", "contact:phone": "+7 499 4991604", "craft_beer": "yes", "name": "\u0421\u0430\u043b\u044e\u0442", "opening_hours": "Mo-Su 11:00-23:00"}}, {"type": "node", "id": 4457908215, "lat": 55.7329113, "lon": 37.6437065, "tags": {"amenity": "pub", "contact:phone": "+7 495 7740401", "contact:website": "http://crabpub.ru", "name": "Crab pub"}}, {"type": "node", "id": 4457908216, "lat": 55.7776614, "lon": 37.4586421, "tags": {"amenity": "pub", "contact:phone": "+7 499 1159326", "name": "Dead Rabbit"}}, {"type": "node", "id": 4457908220, "lat": 55.7408481, "lon": 37.6291053, "tags": {"air_conditioning": "yes", "amenity": "pub", "contact:facebook": "https://www.facebook.com/odpubmoscow", "contact:phone": "+7 499 9290003", "indoor_seating": "yes", "name": "O'Donoghue's", "opening_hours": "Mo-Su 12:00-23:45", "outdoor_seating": "yes", "wheelchair": "no"}}, {"type": "node", "id": 4457908222, "lat": 55.7796428, "lon": 37.6445057, "tags": {"amenity": "pub", "name": "S\u0441hvarz Kaiser"}}, {"type": "node", "id": 4520375491, "lat": 55.7822736, "lon": 37.5999654, "tags": {"amenity": "pub", "internet_access": "wlan", "name": "\u041f\u0438\u0432\u043d\u043e\u0439 \u0434\u043e\u043c M&G", "name:ru": "\u041f\u0438\u0432\u043d\u043e\u0439 \u0434\u043e\u043c M&G", "website": "https://pivdom-msk.ru/"}}, {"type": "node", "id": 4521575849, "lat": 55.7672042, "lon": 37.606164, "tags": {"amenity": "pub", "contact:instagram": "https://www.instagram.com/cross_keys_pub/", "contact:phone": "+7 495 6362955", "contact:website": "http://crosskeyspub.ru/", "name": "The Cross Keys", "opening_hours": "Mo-Fr 12:00-24:00; Sa,Su 00:00-06:00,12:00-24:00"}}, {"type": "node", "id": 4557354216, "lat": 55.7622529, "lon": 37.6126988, "tags": {"amenity": "pub", "contact:facebook": "https://www.facebook.com/Connollystationirishpub", "contact:phone": "+7 499 6782144", "cuisine": "irish", "name": "Connolly station", "opening_hours": "Fr-Sa 12:00-03:00; Tu-Th 12:00-01:00; Su-Mo 12:00-24:00"}}, {"type": "node", "id": 4597699504, "lat": 55.7075841, "lon": 37.5765188, "tags": {"amenity": "pub", "craft_beer": "yes", "name": "\u041c\u0435\u0441\u0442\u043d\u044b\u0439", "opening_hours": "11:00-23:00", "smoking": "no"}}, {"type": "node", "id": 4599989515, "lat": 55.78478, "lon": 37.623576, "tags": {"amenity": "pub", "cuisine": "german", "email": "zakazy@paulaner-brauhaus.ru", "internet_access": "wlan", "name": "Paulaner Brauhaus", "official_name": "Paulaner Brauhaus Moscow Olympic", "opening_hours": "Su-Th 12:00-24:00; Fr-Sa 12:00-02:00", "phone": "+7 495 3802841", "website": "http://paulaner-brauhaus.ru"}}, {"type": "node", "id": 4616541825, "lat": 55.7696454, "lon": 37.5822332, "tags": {"amenity": "pub", "contact:facebook": "https://www.facebook.com/rakovayabar", "contact:phone": "+7 495 9085585", "contact:website": "https://vk.com/public135260474", "craft_beer": "yes", "name": "\u0420\u0430\u043a\u043e\u0432\u0430\u044f \u043d\u0430 \u0422\u0438\u0448\u0438\u043d\u043a\u0435"}}, {"type": "node", "id": 4629604289, "lat": 55.8267459, "lon": 37.4360977, "tags": {"amenity": "pub", "internet_access": "wlan", "name": "Beer & Beard", "name:en": "Beer & Beard", "opening_hours": "Mo-Su 13:00-06:00", "phone": "+7 985 0980951", "website": "https://vk.com/beerbeardbar"}}, {"type": "node", "id": 4630595828, "lat": 55.8199202, "lon": 37.3203945, "tags": {"amenity": "pub", "contact:facebook": "https://www.facebook.com/cornerpubkr/", "contact:phone": "+7 925 8789991", "name": "Corner", "opening_hours": "Mo-Su 00:00-03:00,12:00-24:00"}}, {"type": "node", "id": 4648522689, "lat": 55.757898, "lon": 37.6390713, "tags": {"amenity": "pub", "check_date:opening_hours": "2022-09-13", "contact:phone": "+7 495 1048440", "contact:website": "http://kwakpub.ru", "indoor_seating": "yes", "name": "Pauwel Kwak", "opening_hours": "Mo-Su 12:00-24:00", "outdoor_seating": "no", "payment:credit_cards": "yes", "payment:debit_cards": "yes", "wheelchair": "no"}}, {"type": "node", "id": 4659856339, "lat": 55.6730429, "lon": 37.5261661, "tags": {"amenity": "pub", "contact:instagram": "https://www.instagram.com/brooms_leninsky/", "name": "Brooms"}}, {"type": "node", "id": 4676902691, "lat": 55.7429453, "lon": 37.6275886, "tags": {"amenity": "pub", "contact:instagram": "https://www.instagram.com/blackharppub/", "contact:phone": "+7 985 7502110", "contact:website": "http://blackharppub.ru/", "name": "Black Harp", "name:en": "Black Harp", "name:ru": "\u0411\u043b\u044d\u043a \u0425\u0430\u0440\u043f", "opening_hours": "Mo-Fr 16:00-24:00; Sa,Su 00:00-02:00,16:00-24:00"}}, {"type": "node", "id": 4702025789, "lat": 55.7824907, "lon": 37.5312762, "tags": {"amenity": "pub", "name": "\u0418\u0437\u0438 \u041f\u0430\u0431", "name:ru": "\u0418\u0437\u0438 \u041f\u0430\u0431"}}, {"type": "node", "id": 4706633434, "lat": 55.7540662, "lon": 37.8002772, "tags": {"amenity": "pub", "internet_access": "wlan", "name": "\u0422\u0440\u0438 \u043f\u0435\u0440\u0446\u0430", "opening_hours": "Mo-Th 12:00-24:00, Fr,Sa 12:00-02:00, Su 12:00-24:00"}}, {"type": "node", "id": 4725337889, "lat": 55.7900982, "lon": 37.7838488, "tags": {"addr:city": "\u041c\u043e\u0441\u043a\u0432\u0430", "addr:housenumber": "7/17", "addr:street": "3-\u044f \u041f\u0430\u0440\u043a\u043e\u0432\u0430\u044f \u0443\u043b\u0438\u0446\u0430", "amenity": "pub", "contact:facebook": "https://www.facebook.com/465.izmaylovo", "contact:instagram": "https://www.instagram.com/465_izmailovo/", "contact:vk": "https://vk.com/pivoteka465", "name": "\u041f\u0438\u0432\u043e\u0442\u0435\u043a\u0430 465", "name:ru": "\u041f\u0438\u0432\u043e\u0442\u0435\u043a\u0430", "opening_hours": "Mo-Th 13:00-23:00; Fr-Su 11:00-23:00", "phone": "+7 495 1506465 \u0442\u0435\u043b \u0441\u0435\u0442\u0438;+7 916 0073831 \u0442\u0435\u043b \u0431\u0430\u0440\u0430"}}, {"type": "node", "id": 4769136131, "lat": 55.8797256, "lon": 37.5935591, "tags": {"addr:city": "\u041c\u043e\u0441\u043a\u0432\u0430", "addr:housenumber": "7 \u043a2", "addr:street": "\u0411\u0438\u0431\u0438\u0440\u0435\u0432\u0441\u043a\u0430\u044f \u0443\u043b\u0438\u0446\u0430", "amenity": "pub", "name": "\u0416\u0438\u0433\u0443\u043b\u0435\u0432\u0441\u043a\u043e\u0435", "opening_hours": "12:00-00:00", "smoking": "outside"}}, {"type": "node", "id": 4853902621, "lat": 55.7003452, "lon": 37.5127611, "tags": {"amenity": "pub", "email": "info@kwakpub.ru", "internet_access": "wlan", "name": "Pauwel Kwak", "opening_hours": "Mo-Su 12:00-24:00", "phone": "+7 495 1048440", "website": "http://kwakpub.ru"}}, {"type": "node", "id": 4859982119, "lat": 55.7474032, "lon": 37.8160578, "tags": {"addr:city": "\u041c\u043e\u0441\u043a\u0432\u0430", "addr:housenumber": "37/18", "addr:postcode": "111396", "addr:street": "\u0421\u0432\u043e\u0431\u043e\u0434\u043d\u044b\u0439 \u043f\u0440\u043e\u0441\u043f\u0435\u043a\u0442", "amenity": "pub", "name": "\u041f\u0438\u0432\u0430\u0440\u0438\u0443\u0441"}}, {"type": "node", "id": 4862236829, "lat": 55.727601, "lon": 37.6090899, "tags": {"amenity": "pub", "contact:phone": "+7 968 6655104", "contact:website": "http://www.john-donne.ru", "description": "\u0410\u043d\u0433\u043b\u0438\u0439\u0441\u043a\u0438\u0439 \u043f\u0430\u0431", "name": "\u0414\u0436\u043e\u043d \u0414\u043e\u043d\u043d", "opening_hours": "Mo-Fr 00:00-06:00,09:00-24:00; Sa,Su 00:00-06:00,11:00-24:00"}}, {"type": "node", "id": 4867480421, "lat": 55.7788599, "lon": 37.6737576, "tags": {"addr:postcode": "105082", "amenity": "pub", "contact:instagram": "https://www.instagram.com/pivzavod77", "contact:phone": "+7 926 7798732", "contact:website": "http://www.pivzavod77.ru", "cuisine": "burger;deli;breakfast;grill;coffee_shop;tea;friture;german;fish_and_chips;sausage;american;bavarian;barbecue", "internet_access": "wlan", "name": "\u041f\u0438\u0432\u0437\u0430\u0432\u043e\u0434 77", "name:en": "Pivzavod77", "name:ru": "\u041f\u0438\u0432\u0437\u0430\u0432\u043e\u0434 77", "opening_hours": "Mo-Fr 09:00-24:00; Sa,Su 11:00-24:00", "shop": "alcohol"}}, {"type": "node", "id": 4873356821, "lat": 55.6930166, "lon": 37.5302973, "tags": {"amenity": "pub", "contact:vk": "https://vk.com/craft_brothers_moscow", "craft_beer": "yes", "name": "\u0411\u0440\u0430\u0442\u044c\u044f \u041a\u0440\u0430\u0444\u0442", "name:ru": "\u0411\u0440\u0430\u0442\u044c\u044f \u041a\u0440\u0430\u0444\u0442", "shop": "alcohol"}}, {"type": "node", "id": 4884458841, "lat": 55.7456656, "lon": 37.6264151, "tags": {"amenity": "pub", "contact:facebook": "https://www.facebook.com/podozritelnyebar", "contact:phone": "+7 495 9200977", "name": "\u041f\u043e\u0434\u043e\u0437\u0440\u0438\u0442\u0435\u043b\u044c\u043d\u044b\u0435 \u043b\u0438\u0446\u0430", "opening_hours": "Mo-Fr 13:00-23:00; Sa,Su 14:00-23:00"}}, {"type": "node", "id": 4888187621, "lat": 55.7835022, "lon": 37.7212807, "tags": {"amenity": "pub", "brand": "\u041a\u0440\u0443\u0436\u043a\u0430", "brand:wikidata": "Q6439558", "brand:wikipedia": "ru:\u041a\u0440\u0443\u0436\u043a\u0430 (\u0441\u0435\u0442\u044c \u0440\u0435\u0441\u0442\u043e\u0440\u0430\u043d\u043e\u0432)", "contact:facebook": "https://www.facebook.com/KRUZHKA.MOSCOW", "contact:instagram": "https://www.instagram.com/kruzhkaru", "contact:twitter": "https://twitter.com/Kruzhkaru", "contact:website": "http://www.kruzhka.ru", "craft_beer": "yes", "diet:vegetarian": "no", "internet_access": "wlan", "name": "\u041a\u0440\u0443\u0436\u043a\u0430", "name:ru": "\u041a\u0440\u0443\u0436\u043a\u0430", "opening_hours": "Mo-Su 12:00-00:00"}}, {"type": "node", "id": 4897760845, "lat": 55.7577397, "lon": 37.633734, "tags": {"amenity": "pub", "contact:facebook": "https://www.facebook.com/leftbankpub", "contact:phone": "+7 495 7923959", "contact:website": "http://lbpub.ru", "name": "Left Bank", "opening_hours": "Su-Th 12:00-24:00, Fr,Sa 12:00-02:00"}}, {"type": "node", "id": 4901307221, "lat": 55.7059182, "lon": 37.5108121, "tags": {"addr:city": "\u041c\u043e\u0441\u043a\u0432\u0430", "addr:housenumber": "8/29", "addr:street": "\u041c\u0438\u0447\u0443\u0440\u0438\u043d\u0441\u043a\u0438\u0439 \u043f\u0440\u043e\u0441\u043f\u0435\u043a\u0442", "amenity": "pub", "name": "\u0411\u0438\u0440\u043e\u0434\u0440\u043e\u043c", "name:ru": "\u0411\u0438\u0440\u043e\u0434\u0440\u043e\u043c"}}, {"type": "node", "id": 4948754562, "lat": 55.7277596, "lon": 37.5701845, "tags": {"amenity": "pub", "contact:facebook": "https://www.facebook.com/rakovayabar", "contact:phone": "+7 495 9085585", "contact:website": "https://vk.com/public135260474", "craft_beer": "yes", "name": "\u0420\u0430\u043a\u043e\u0432\u0430\u044f \u043d\u0430 \u0423\u0441\u0430\u0447\u0435\u0432\u0430", "opening_hours": "Mo-Su 00:00-01:00,12:00-24:00", "wheelchair": "no"}}, {"type": "node", "id": 4968768401, "lat": 55.7302004, "lon": 37.6314152, "tags": {"amenity": "pub", "contact:instagram": "https://www.instagram.com/tozhe_pub", "contact:phone": "+7 916 3130337", "contact:website": "http://www.tozhe.pub", "name": "\u0422\u043e\u0436\u0435 \u043f\u0430\u0431", "opening_hours": "Mo-Fr 12:00-24:00; Sa,Su 15:00-24:00"}}, {"type": "node", "id": 4971893225, "lat": 55.5693516, "lon": 37.4758337, "tags": {"amenity": "pub", "name": "\u041c\u0443\u0437\u0435\u0439 \u043f\u0438\u0432\u0430", "name:ru": "\u041c\u0443\u0437\u0435\u0439 \u043f\u0438\u0432\u0430"}}, {"type": "node", "id": 5017977426, "lat": 55.7980133, "lon": 37.6698832, "tags": {"amenity": "pub", "contact:website": "https://bradubar.ru/sokolniki", "name": "Bradu bar"}}, {"type": "node", "id": 5020463324, "lat": 55.7400486, "lon": 37.8612032, "tags": {"amenity": "pub", "name": "\u0411\u0443\u0440\u0433\u0435\u0440 \u041a\u0440\u0430\u0444\u0442 \u0411\u0438\u0440"}}, {"type": "node", "id": 5091104022, "lat": 55.902963, "lon": 37.3888309, "tags": {"amenity": "pub", "name": "\u041f\u0438\u0432\u043d\u0430\u044f \u043b\u0430\u0432\u043a\u0430", "name:ru": "\u041f\u0438\u0432\u043d\u0430\u044f \u043b\u0430\u0432\u043a\u0430"}}, {"type": "node", "id": 5098459823, "lat": 55.760412, "lon": 37.5613606, "tags": {"amenity": "pub", "contact:phone": "+7 499 6657475", "name": "Viktoria&Albert"}}, {"type": "node", "id": 5102944249, "lat": 55.7467361, "lon": 37.7632912, "tags": {"amenity": "pub", "name": "\u0428\u0432\u0430\u0440\u0446 \u041a\u0430\u0439\u0437\u0435\u0440", "name:de": "Schwarz Kaiser", "opening_hours": "Mo-Su 11:00-23:00", "phone": "+7 915 2994713", "website": "https://www.schwarzkaiser.ru/"}}, {"type": "node", "id": 5124243222, "lat": 55.7620805, "lon": 37.6348525, "tags": {"amenity": "pub", "contact:facebook": "https://www.facebook.com/b33rgik", "contact:phone": "+7 925 4525035", "name": "Beer Gik", "opening_hours": "Mo-Su 12:00-23:00"}}, {"type": "node", "id": 5143746661, "lat": 55.7594829, "lon": 37.5831154, "tags": {"amenity": "pub", "contact:facebook": "https://www.facebook.com/seabeerbar", "contact:phone": "+7 977 7090518", "name": "\u041c\u043e\u0440\u0435\u043f\u0438va", "opening_hours": "Mo-Su 13:00-24:00"}}, {"type": "node", "id": 5155362200, "lat": 55.7263619, "lon": 37.4689299, "tags": {"amenity": "pub", "contact:vk": "https://vk.com/opbar", "name": "\u041e\u043f\u043e\u0440\u043d\u044b\u0439 \u043f\u0443\u043d\u043a\u0442", "phone": "+7 495 0883856", "website": "http://oppub.ru"}}, {"type": "node", "id": 5203271238, "lat": 55.7587298, "lon": 37.6419402, "tags": {"amenity": "pub", "contact:phone": "+7 499 4000323", "contact:vk": "https://vk.com/haratsmsk", "contact:website": "https://moscow.harats.com", "name": "Harat's", "opening_hours": "Mo-Su 12:00-06:00"}}, {"type": "node", "id": 5219873323, "lat": 55.741659, "lon": 37.6559352, "tags": {"amenity": "pub", "name": "Smith's"}}, {"type": "node", "id": 5221162950, "lat": 55.6647624, "lon": 37.7527263, "tags": {"amenity": "pub", "description": "\u0418\u0440\u043b\u0430\u043d\u0434\u0441\u043a\u0438\u0439 \u043f\u0430\u0431", "name": "\u0414\u0436\u043e\u043d \u0413\u0438\u043b\u0440\u043e\u0439\u0441", "opening_hours": "Su-Th 12:00-00:01; Fr-Sa 12:00-00:03", "phone": "84997847179"}}, {"type": "node", "id": 5221566274, "lat": 55.6541645, "lon": 37.7577808, "tags": {"amenity": "pub", "name": "\u0415\u0449\u0435 \u043f\u0430\u0440\u043e\u0447\u043a\u0443"}}, {"type": "node", "id": 5226655823, "lat": 55.8168134, "lon": 37.5004859, "tags": {"alt_name": "Wildschwein", "amenity": "pub", "contact:phone": "+7 977 2950410", "contact:website": "http://wildschwein.ru/", "internet_access": "wlan", "internet_access:fee": "no", "level": "-1", "name": "\u0412\u0438\u043b\u0434\u0448\u0432\u0430\u0439\u043d", "opening_hours": "Mo-Fr 10:00-24:00; Sa,Su 12:00-24:00"}}, {"type": "node", "id": 5260252116, "lat": 55.7355805, "lon": 37.6498836, "tags": {"amenity": "pub", "contact:facebook": "https://www.facebook.com/rakovayabar", "contact:website": "https://vk.com/public135260474", "craft_beer": "yes", "name": "\u0420\u0430\u043a\u043e\u0432\u0430\u044f \u043d\u0430 \u0422\u0430\u0433\u0430\u043d\u043a\u0435", "opening_hours": "Mo-Su 00:00-01:00,12:00-24:00"}}, {"type": "node", "id": 5333357733, "lat": 55.8987274, "lon": 37.4779243, "tags": {"addr:housenumber": "10", "addr:street": "\u0421\u043e\u0432\u0445\u043e\u0437\u043d\u0430\u044f \u0443\u043b\u0438\u0446\u0430", "amenity": "pub", "cuisine": "pizza;grill", "delivery": "yes", "email": "info@bavbeer.ru", "level": "1", "name": "\u0411\u0430\u0432\u0430\u0440\u0438\u044f", "opening_hours": "Mo-Su 11:00-23:00", "phone": "+7 910 0881459", "takeaway": "yes", "website": "www.bavbeer.ru"}}, {"type": "node", "id": 5337863421, "lat": 55.7932512, "lon": 37.7893735, "tags": {"amenity": "pub", "name": "\u041f\u0438\u0432\u043d\u043e\u0439 \u043c\u0430\u0433\u0430\u0437\u0438\u043d & \u043f\u0430\u0431", "opening_hours": "Mo-Fr 08:00-21:00; Sa,Su 09:00-21:00"}}, {"type": "node", "id": 5340735535, "lat": 55.8586938, "lon": 37.4912363, "tags": {"addr:city": "\u041c\u043e\u0441\u043a\u0432\u0430", "addr:housenumber": "8\u0410", "addr:street": "\u0424\u0435\u0441\u0442\u0438\u0432\u0430\u043b\u044c\u043d\u0430\u044f \u0443\u043b\u0438\u0446\u0430", "amenity": "pub", "name": "\u0428\u043c\u0435\u043b\u0438"}}, {"type": "node", "id": 5378485505, "lat": 55.8052232, "lon": 37.5107696, "tags": {"amenity": "pub", "contact:facebook": "https://www.facebook.com/luckypubsokol", "contact:instagram": "https://www.instagram.com/luckypubsokol/", "contact:phone": "+7 985 7291719", "name": "Lucky pub", "opening_hours": "We-Su 15:00-24:00"}}, {"type": "node", "id": 5382699857, "lat": 55.8049444, "lon": 37.5174519, "tags": {"amenity": "pub", "contact:instagram": "https://www.instagram.com/oldshoespub/", "contact:website": "https://oldshoespub.ru/", "level": "-1", "name": "Old shoes", "opening_hours": "Mo-Su 13:00-23:00"}}, {"type": "node", "id": 5382881841, "lat": 55.6244401, "lon": 37.5085903, "tags": {"amenity": "pub", "name": "\u041f\u0438\u0432\u043d\u043e\u0439 \u0434\u0432\u043e\u0440\u0438\u043a"}}, {"type": "node", "id": 5409660852, "lat": 55.8048871, "lon": 37.525432, "tags": {"amenity": "pub", "name": "ChiliChukin", "opening_hours": "Mo-Su 12:00-23:00"}}, {"type": "node", "id": 5426939122, "lat": 55.7810055, "lon": 37.6126785, "tags": {"amenity": "pub", "name": "\u0428\u0432\u0430\u0440\u0446 \u041a\u0430\u0439\u0437\u0435\u0440", "opening_hours": "Mo-Su 11:00-23:00", "operator": "\u0418\u041f \u0421\u0443\u043b\u0438\u043c\u043e\u0432 \u0410. \u0412."}}, {"type": "node", "id": 5443195340, "lat": 55.7984044, "lon": 37.5855495, "tags": {"amenity": "pub", "contact:facebook": "https://www.facebook.com/BestBeerCraft/", "name": "BestBeerCraft"}}, {"type": "node", "id": 5450683722, "lat": 55.6059864, "lon": 37.7183078, "tags": {"amenity": "pub", "name": "\u0420\u043e\u0441\u0431\u0430\u043d\u043a"}}, {"type": "node", "id": 5453965840, "lat": 55.771704, "lon": 37.8468976, "tags": {"amenity": "pub", "name": "\u0421omeback"}}, {"type": "node", "id": 5459348921, "lat": 55.7875673, "lon": 37.6139371, "tags": {"addr:postcode": "127018", "amenity": "pub", "cuisine": "american", "email": "6006098@rcpub.cc", "internet_access": "wlan", "name": "Roy Castle", "opening_hours": "Mo-Fr 16:00-01:00; Sa-Su 15:00-03:00", "operator": "\u041e\u041e\u041e \"\u041b\u043e\u0440\u044d\u0442\u0442\"", "phone": "+7 495 6006098", "website": "http://rcpub.ru"}}, {"type": "node", "id": 5476669031, "lat": 55.6334594, "lon": 37.7519642, "tags": {"amenity": "pub", "name": "\u041f\u0438\u0432\u043e \u043a\u0440\u0430\u0444\u0442"}}, {"type": "node", "id": 5536074121, "lat": 55.760733, "lon": 37.6639652, "tags": {"amenity": "pub", "contact:instagram": "https://www.instagram.com/armacraft/", "contact:vk": "https://vk.com/armacraftmoscow", "name": "\u0410\u0440\u043c\u0430 \u043a\u0440\u0430\u0444\u0442", "opening_hours": "Mo-Fr 13:00-24:00; Sa,Su 00:00-02:00,14:00-24:00"}}, {"type": "node", "id": 5541156311, "lat": 55.795545, "lon": 37.5596903, "tags": {"amenity": "pub", "contact:phone": "+7 926 1992234", "name": "\u041b\u0435\u0441", "opening_hours": "Mo-Su 11:00-23:30", "website": "https://lesbar.ru/"}}, {"type": "node", "id": 5543218685, "lat": 55.7829891, "lon": 37.7303234, "tags": {"amenity": "pub", "indoor_seating": "yes", "name": "\u0428\u0432\u0430\u0440\u0446 \u041a\u0430\u0439\u0437\u0435\u0440", "opening_hours": "Mo-Su 11:00-23:00", "outdoor_seating": "no"}}, {"type": "node", "id": 5590639625, "lat": 55.7945473, "lon": 37.5411186, "tags": {"amenity": "pub", "name": "Bench Cafe", "opening_hours": "Mo-Su 09:00-21:00"}}, {"type": "node", "id": 5642207216, "lat": 55.7710012, "lon": 37.5964836, "tags": {"amenity": "pub", "contact:facebook": "https://www.facebook.com/tweedandstout/", "name": "Tweed & Stout", "opening_hours": "Mo-Su 12:00-23:00"}}, {"type": "node", "id": 5642207217, "lat": 55.7492022, "lon": 37.590072, "tags": {"amenity": "pub", "indoor_seating": "yes", "name": "\u0421\u043b\u0435\u043f\u043e\u0439 \u041f\u044c\u044e", "opening_hours": "Su-Th 12:00-24:00, Fr,Sa 12:00-02:00", "outdoor_seating": "yes", "wheelchair": "no"}}, {"type": "node", "id": 5676417064, "lat": 55.7926683, "lon": 37.4957265, "tags": {"amenity": "pub", "name": "\u0411\u0443\u0437\u0435\u0440", "name:en": "Boozer"}}, {"type": "node", "id": 5730559766, "lat": 55.7742211, "lon": 37.584722, "tags": {"amenity": "pub", "name": "Three Tuns", "opening_hours": "Su-Th 12:00-01:00, Fr,Sa 12:00-03:00"}}, {"type": "node", "id": 5730559771, "lat": 55.7676619, "lon": 37.6024823, "tags": {"amenity": "pub", "contact:facebook": "https://www.facebook.com/borrachitosbar/", "contact:phone": "+7 926 1297805", "name": "Borrachitos", "opening_hours": "Mo-Fr 16:00-24:00; Sa,Su 00:00-01:00,16:00-24:00"}}, {"type": "node", "id": 5730559774, "lat": 55.754476, "lon": 37.6379274, "tags": {"amenity": "pub", "contact:facebook": "https://www.facebook.com/blackswanpubshop/", "contact:phone": "+7 495 1145215", "contact:website": "http://www.bspubshop.ru/", "name": "Black Swan", "opening_hours": "Mo-Th 11:00-23:00; Fr 11:00-24:00; Sa 00:00-03:00,11:00-24:00; Su 00:00-03:00,11:00-23:00"}}, {"type": "node", "id": 5796485833, "lat": 55.9025485, "lon": 37.5860036, "tags": {"entrance": "yes"}}, {"type": "node", "id": 5799814730, "lat": 55.8177527, "lon": 37.325852, "tags": {"amenity": "pub", "contact:email": "manager@redfinch.ru", "contact:instagram": "https://www.instagram.com/red_finch_pub/", "contact:phone": "+7 495 128-07-00", "name": "Red Finch", "opening_hours": "Mo-Su 00:00-02:00,12:00-24:00; Tu-Fr 12:00-24:00"}}, {"type": "node", "id": 5800348653, "lat": 55.5720407, "lon": 37.5745684, "tags": {"addr:city": "\u041c\u043e\u0441\u043a\u0432\u0430", "addr:housenumber": "1\u0410", "addr:street": "\u0443\u043b\u0438\u0446\u0430 \u0417\u043d\u0430\u043c\u0435\u043d\u0441\u043a\u0438\u0435 \u0421\u0430\u0434\u043a\u0438", "amenity": "pub", "name": "\u0411\u0414\u0414 \u041f\u0410\u0411", "name:en": "BDD PUB"}}, {"type": "node", "id": 5873577285, "lat": 55.6454528, "lon": 37.7473922, "tags": {"amenity": "pub", "name": "\u0427\u0435\u0434\u0434\u0435\u0440", "opening_hours": "Mo-Su 10:00-23:00", "phone": "+7 962 9565956", "website": "https://chedder.ru/"}}, {"type": "node", "id": 5896638085, "lat": 55.7895585, "lon": 37.533242, "tags": {"amenity": "pub", "cuisine": "chicken;friture;burger;steak_house;american;sandwich;coffee_shop;grill;local", "email": "adv.rest@yandex.ru", "internet_access": "wlan", "name": "\u0427\u0435\u0440\u043d\u043e\u0432\u0430\u0440", "opening_hours": "Mo-Su 10:00-24:00", "phone": "+7 499 1368179", "website": "https://cernovar-bar.ru/"}}, {"type": "node", "id": 5927588586, "lat": 55.7709269, "lon": 37.5968005, "tags": {"addr:housenumber": "3 \u04412", "addr:postcode": "125047", "addr:street": "\u041e\u0440\u0443\u0436\u0435\u0439\u043d\u044b\u0439 \u043f\u0435\u0440\u0435\u0443\u043b\u043e\u043a", "amenity": "pub", "contact:facebook": "https://www.facebook.com/sharehousebar/", "contact:phone": "+7 916 2974252", "name": "Share House", "name:ru": "Share House", "opening_hours": "Su-Th 15:00-24:00; Fr-Sa 15:00-02:00"}}, {"type": "node", "id": 5939290875, "lat": 55.7889973, "lon": 37.5363925, "tags": {"addr:city": "\u041c\u043e\u0441\u043a\u0432\u0430", "addr:housenumber": "2", "addr:street": "\u0425\u043e\u0434\u044b\u043d\u0441\u043a\u0438\u0439 \u0431\u0443\u043b\u044c\u0432\u0430\u0440", "amenity": "pub", "contact:facebook": "https://www.facebook.com/pivoteka465.CSKA", "contact:instagram": "https://www.instagram.com/pivoteka.cska/", "contact:phone": "+7 929 5334833;+7 495 1506465", "contact:vk": "https://vk.com/pivoteka.cska", "name": "\u041f\u0438\u0432\u043e\u0442\u0435\u043a\u0430 465", "opening_hours": "Mo-Su 12:00-24:00", "phone": "+7 929 5334833", "website": "http://pivoteka465.ru"}}, {"type": "node", "id": 5948307070, "lat": 55.7935569, "lon": 37.6042822, "tags": {"addr:city": "\u041c\u043e\u0441\u043a\u0432\u0430", "addr:housenumber": "31", "addr:postcode": "127018", "addr:street": "\u0443\u043b\u0438\u0446\u0430 \u0421\u0443\u0449\u0451\u0432\u0441\u043a\u0438\u0439 \u0412\u0430\u043b", "amenity": "pub", "craft_beer": "yes", "name": "13 rules", "opening_hours": "Mo-Su 11:00-23:00", "outdoor_seating": "no", "payment:cash": "yes", "payment:credit_cards": "yes", "payment:debit_cards": "yes", "payment:maestro": "yes", "payment:mastercard": "yes", "payment:visa": "yes", "phone": "+7 958 5773630", "shop": "alcohol", "smoking": "outside", "source": "local knowledge", "website": "https://franshiza.13rules.ru/"}}, {"type": "node", "id": 5961444191, "lat": 55.7749151, "lon": 37.5834855, "tags": {"amenity": "pub", "contact:facebook": "https://www.facebook.com/right.habits/", "contact:phone": "+7 925 5339727", "cuisine": "grill;american;steak_house", "internet_access": "wlan", "name": "Right Habits", "opening_hours": "Mo-Fr 12:00-24:00; Sa,Su 00:00-02:00,12:00-24:00", "operator": "\u041c\u0438\u0445\u0430\u0438\u043b \u0413\u0443\u043a\u0430\u0441\u044f\u043d", "website": "https://instagram.com/right.habits"}}, {"type": "node", "id": 5976306596, "lat": 55.7302688, "lon": 37.6268223, "tags": {"addr:city": "\u041c\u043e\u0441\u043a\u0432\u0430", "addr:housenumber": "28", "addr:street": "\u0412\u0430\u043b\u043e\u0432\u0430\u044f \u0443\u043b\u0438\u0446\u0430", "amenity": "pub", "contact:instagram": "https://www.instagram.com/jawsspot_valovaya28/", "name": "Jawsspot", "opening_hours": "Mo-Fr 15:00-24:00; Sa,Su 00:00-02:00,15:00-24:00"}}, {"type": "node", "id": 6049762287, "lat": 55.6682567, "lon": 37.7565125, "tags": {"amenity": "pub", "name": "\u0411\u0438\u0440\u0430", "opening_hours": "Mo-Th 14:00-22:00; Fr 14:00-23:00; Sa 12:00-23:00; Su 12:00-22:00"}}, {"type": "node", "id": 6050977001, "lat": 55.6868033, "lon": 37.7535566, "tags": {"amenity": "pub", "name": "\u041b\u0438\u0442.Ra", "opening_hours": "Mo-Su 10:00-23:00"}}, {"type": "node", "id": 6050977690, "lat": 55.6539451, "lon": 37.7642582, "tags": {"amenity": "pub", "email": "pubmoscow@gmail.com", "name": "Red Cat", "name:en": "Red Cat", "opening_hours": "Mo-Su 12:00-23:00", "phone": "+7 495 3469900", "website": "http://pubredcat.ru"}}, {"type": "node", "id": 6052762486, "lat": 55.6985433, "lon": 37.7631722, "tags": {"amenity": "pub", "name": "\u041f\u0438\u0432\u043d\u043e\u0439 \u043c\u0430\u0433\u0430\u0437\u0438\u043d", "opening_hours": "Mo-Su 10:00-23:00"}}, {"type": "node", "id": 6054431098, "lat": 55.8921644, "lon": 37.4333958, "tags": {"amenity": "pub", "name": "PUBlo escoBAR"}}, {"type": "node", "id": 6066683586, "lat": 55.706424, "lon": 37.748073, "tags": {"amenity": "pub", "name": "\u0420\u0430\u0437\u043b\u0438\u0432\u043d\u044b\u0435 \u043d\u0430\u043f\u0438\u0442\u043a\u0438", "opening_hours": "Mo-Sa 11:00-23:00; Su 11:00-22:00"}}, {"type": "node", "id": 6068927339, "lat": 55.6830111, "lon": 37.8451009, "tags": {"amenity": "pub"}}, {"type": "node", "id": 6110985286, "lat": 55.6368414, "lon": 37.7245742, "tags": {"amenity": "pub", "name": "Beer empire"}}, {"type": "node", "id": 6111673099, "lat": 55.7719846, "lon": 37.6199676, "tags": {"amenity": "pub", "contact:facebook": "https://www.facebook.com/collinspubmoscow", "contact:instagram": "https://www.instagram.com/collinspubmoscow/", "name": "Michael Collins", "opening_hours": "Mo,Tu 12:00-24:00; We-Fr 00:00-01:00,12:00-24:00; Sa,Su 00:00-03:00,12:00-24:00"}}, {"type": "node", "id": 6124942685, "lat": 55.6168401, "lon": 37.7278785, "tags": {"amenity": "pub", "name": "\u0416\u0431\u0430\u043d\u0447\u0438\u043a"}}, {"type": "node", "id": 6124958091, "lat": 55.6259818, "lon": 37.724057, "tags": {"amenity": "pub", "name": "\u041f\u0418\u0412\u041e\u043c\u0430\u043d\u043e\u0432\u042a", "opening_hours": "Mo-Su 11:00-23:00"}}, {"type": "node", "id": 6125393001, "lat": 55.6254394, "lon": 37.715923, "tags": {"amenity": "pub", "name": "\u0420\u0430\u0437\u043b\u0438\u0432\u043d\u044b\u0435"}}, {"type": "node", "id": 6129142589, "lat": 55.6096341, "lon": 37.7154469, "tags": {"amenity": "pub", "name": "\u041b\u0438\u0442\u0440\u0430", "opening_hours": "Mo-Su 10:00-23:00"}}, {"type": "node", "id": 6143203317, "lat": 55.6104416, "lon": 37.7401015, "tags": {"amenity": "pub"}}, {"type": "node", "id": 6156597537, "lat": 55.5846289, "lon": 37.7410473, "tags": {"amenity": "pub", "name": "\u0425\u043c\u0435\u043b\u044c \u0438 \u0440\u0430\u043a\u0438"}}, {"type": "node", "id": 6200361894, "lat": 55.7406701, "lon": 37.6542954, "tags": {"amenity": "pub", "check_date": "2022-06-20", "contact:phone": "+7 495 0980410", "contact:vk": "https://vk.com/haratsmsk", "contact:website": "https://moscow.harats.com", "name": "Harat's", "opening_hours": "Mo-Su 12:00-06:00"}}, {"type": "node", "id": 6257489045, "lat": 55.7201879, "lon": 37.5994018, "tags": {"amenity": "pub", "contact:facebook": "https://www.facebook.com/lisaigus", "contact:phone": "+7 925 8897237", "name": "\u041b\u0438\u0441\u0430 \u0438 \u0413\u0443\u0441\u044c", "opening_hours": "Mo-Fr 00:00-00:30,14:00-24:00; Sa,Su 00:00-06:00,14:00-24:00"}}, {"type": "node", "id": 6258290785, "lat": 55.6878545, "lon": 37.5716259, "tags": {"amenity": "pub", "cuisine": "irish", "email": "billymacdaniel@yandex.ru", "internet_access": "wlan", "name": "\u0411\u0438\u043b\u043b\u0438 \u041c\u0430\u043a \u0414\u0435\u043d\u0438\u0435\u043b", "name:en": "Billy McDaniel", "opening_hours": "Mo-Th 12:00-01:00; Fr-Sa 12:00-03:00; Su 12:00-01:00", "phone": "+7 495 2225988", "website": "https://billymacdaniel.com/"}}, {"type": "node", "id": 6258395544, "lat": 55.7594353, "lon": 37.5507197, "tags": {"amenity": "pub", "contact:instagram": "https://www.instagram.com/sab_corner/", "contact:phone": "+7 977 3802318", "contact:website": "http://sabcorner.ru/", "craft_beer": "yes", "name": "SAB Corner"}}, {"type": "node", "id": 6258395545, "lat": 55.7576167, "lon": 37.6243597, "tags": {"amenity": "pub", "contact:phone": "+7 495 9660906", "contact:website": "https://dublinerpub.ru/", "level": "2", "name": "\u0414\u0443\u0431\u043b\u0438\u043d\u0435\u0446", "opening_hours": "Mo,Tu 12:00-24:00; We-Fr 00:00-01:00,12:00-24:00; Sa,Su 00:00-03:00,12:00-24:00"}}, {"type": "node", "id": 6262319491, "lat": 55.6770451, "lon": 37.7454115, "tags": {"amenity": "pub", "name": "\u0425\u043c\u0435\u043b\u0451\u0444\u0444"}}, {"type": "node", "id": 6272421888, "lat": 55.6468577, "lon": 37.7538329, "tags": {"amenity": "pub", "name": "\u0428\u0430\u043b\u043c\u0430\u043d"}}, {"type": "node", "id": 6300086785, "lat": 55.8223034, "lon": 37.3729037, "tags": {"amenity": "pub", "name": "69Pints", "name:en": "69Pints"}}, {"type": "node", "id": 6306317357, "lat": 55.5911052, "lon": 37.7610185, "tags": {"amenity": "pub", "name": "\u0412\u043e\u0440\u043e\u043d\u0435\u0436\u0441\u043a\u043e\u0435 \u043f\u0438\u0432\u043e"}}, {"type": "node", "id": 6314513686, "lat": 55.7523327, "lon": 37.5987019, "tags": {"amenity": "pub", "name": "Goat", "name:en": "Goat", "opening_hours": "Mo-Su 16:00-24:00", "phone": "+7 925 1023176", "website": "http://goatbar.ru"}}, {"type": "node", "id": 6337386334, "lat": 55.8575211, "lon": 37.5854596, "tags": {"amenity": "pub", "name": "\u0418\u0437\u0438 \u043f\u0430\u0431", "phone": "+7 495 7773954", "website": "http://easypub.ru"}}, {"type": "node", "id": 6342566218, "lat": 55.810051, "lon": 37.4531653, "tags": {"addr:housenumber": "70 \u043a1", "addr:street": "\u0410\u0432\u0438\u0430\u0446\u0438\u043e\u043d\u043d\u0430\u044f \u0443\u043b\u0438\u0446\u0430", "amenity": "pub", "contact:facebook": "https://www.facebook.com/465schuka", "contact:instagram": "https://www.instagram.com/465_schuka/", "contact:vk": "https://vk.com/pivoteka465", "description": "\u0411\u0430\u0440 \u043a\u0440\u0430\u0444\u0442\u043e\u0432\u043e\u0433\u043e \u043f\u0438\u0432\u0430 \u0438 \u0441\u0438\u0434\u0440\u0430", "email": "78190423@mail.ru", "internet_access": "wlan", "name": "\u041f\u0438\u0432\u043e\u0442\u0435\u043a\u0430 465", "name:ru": "\u041f\u0438\u0432\u043e\u0442\u0435\u043a\u0430 465", "opening_hours": "Mo-Th 13:00-24:00; Fr-Su 13:00-01:00", "phone": "+7 495 1506465;+7 985 2022705", "shop": "alcohol", "website": "pivoteka465.ru"}}, {"type": "node", "id": 6397244286, "lat": 55.7504802, "lon": 37.7138067, "tags": {"amenity": "pub"}}, {"type": "node", "id": 6426593649, "lat": 55.7652106, "lon": 37.5690312, "tags": {"amenity": "pub", "contact:facebook": "https://www.facebook.com/Leffe-Cafe-441043016433037/", "contact:phone": "+7 915 3237330", "name": "Leffe Caf\u00e9", "opening_hours": "Mo-Su 12:00-24:00", "wheelchair": "limited"}}, {"type": "node", "id": 6481491417, "lat": 55.6343289, "lon": 37.7453206, "tags": {"amenity": "pub", "name": "\u041f\u0438\u043d\u0442\u0430", "opening_hours": "Mo-Su 11:00-23:00"}}, {"type": "node", "id": 6482344985, "lat": 55.6339157, "lon": 37.7488589, "tags": {"amenity": "pub"}}, {"type": "node", "id": 6482394386, "lat": 55.6436316, "lon": 37.721808, "tags": {"amenity": "pub", "name": "\u0411\u043e\u0447\u043e\u043d\u043e\u043a"}}, {"type": "node", "id": 6483806686, "lat": 55.6104252, "lon": 37.6974688, "tags": {"amenity": "pub", "name": "\u041f\u0435\u043d\u0430", "opening_hours": "Mo-Fr 12:00-23:00; Sa-Su 10:00-23:00"}}, {"type": "node", "id": 6501821187, "lat": 55.540283, "lon": 37.5158761, "tags": {"addr:postcode": "117041", "amenity": "pub", "craft_beer": "yes", "name": "\u0411\u0430\u044033", "opening_hours": "Mo-Fr 12:00-18:00; Sa-Su 11:00-23:00", "phone": "+7 925 0174454", "website": "https://bar33.ru/"}}, {"type": "node", "id": 6501829485, "lat": 55.5496382, "lon": 37.5441502, "tags": {"addr:postcode": "117042", "amenity": "pub", "craft_beer": "yes", "name": "\u0411\u0430\u044033", "opening_hours": "Mo-Fr 12:00-23:00; Sa-Su 11:00-23:00", "phone": "+7 925 0174454", "website": "https://bar33.ru/"}}, {"type": "node", "id": 6518623081, "lat": 55.7531425, "lon": 37.8799211, "tags": {"amenity": "pub", "name": "\u0412\u0435\u0441\u0451\u043b\u0430\u044f \u0442\u0430\u043a\u0441\u0430"}}, {"type": "node", "id": 6550969888, "lat": 55.6510756, "lon": 37.7509748, "tags": {"amenity": "pub", "name": "\u0420\u0430\u0437\u043b\u0438\u0432\u043d\u044b\u0435 \u043d\u0430\u043f\u0438\u0442\u043a\u0438", "opening_hours": "Mo-Su 12:00-23:00"}}, {"type": "node", "id": 6553651185, "lat": 55.6515928, "lon": 37.6134644, "tags": {"addr:postcode": "117556", "amenity": "pub", "craft_beer": "yes", "name": "13 rules", "opening_hours": "Mo-Su 13:00-24:00", "phone": "+7 963 9941313", "website": "https://www.instagram.com/13Rules_Artekovskaya/"}}, {"type": "node", "id": 6595783286, "lat": 55.6774193, "lon": 37.635405, "tags": {"addr:housenumber": "11 \u043a2", "amenity": "pub", "cuisine": "bavarian", "internet_access": "wlan", "name": "\u0411\u0438\u0440\u0441\u0442\u043e\u043d", "name:en": "Beerston", "opening_hours": "Mo-Su 12:00-23:00", "outdoor_seating": "yes", "smoking": "outside"}}, {"type": "node", "id": 6610715857, "lat": 55.8700305, "lon": 37.6658455, "tags": {"amenity": "pub", "opening_hours": "Mo-Su 10:00-22:00"}}, {"type": "node", "id": 6658429603, "lat": 55.7073544, "lon": 37.6567634, "tags": {"air_conditioning": "yes", "amenity": "pub", "indoor_seating": "yes", "name": "\u0421\u0442\u0440\u0430\u0436\u0435\u043a", "opening_hours": "Mo-Su 12:00-24:00", "outdoor_seating": "yes", "smoking": "no", "wheelchair": "no"}}, {"type": "node", "id": 6658447507, "lat": 55.678011, "lon": 37.697464, "tags": {"amenity": "pub"}}, {"type": "node", "id": 6715670585, "lat": 55.6908799, "lon": 37.6590035, "tags": {"amenity": "pub", "contact:instagram": "https://www.instagram.com/beersenev.bar/", "cuisine": "burger;breakfast", "name:en": "Beersenev", "opening_hours": "Mo-Su 12:00-24:00", "phone": "+7 495 6753318", "website": "http://beersenev.bar"}}, {"type": "node", "id": 6779217170, "lat": 55.7393571, "lon": 37.6517048, "tags": {"amenity": "pub", "contact:instagram": "https://www.instagram.com/bar.antresol/", "craft_beer": "yes", "name": "\u0410\u043d\u0442\u0440\u0435\u0441\u043e\u043b\u044c", "opening_hours": "Mo-Su 16:00-23:00"}}, {"type": "node", "id": 6785529327, "lat": 55.666082, "lon": 37.427153, "tags": {"amenity": "pub", "name": "\u041f\u0438\u0432\u043d\u0430\u044f \u2116 1 \u043f\u0438\u0446\u0446\u0435\u0440\u0438\u044f"}}, {"type": "node", "id": 6831578487, "lat": 55.7860132, "lon": 37.5956233, "tags": {"addr:housenumber": "46 \u04411", "amenity": "pub", "name": "\u041f\u0443\u0448\u043a\u0438-\u043c\u0438\u0448\u043a\u0438", "name:en": "Guns and bears", "name:ru": "\u041f\u0443\u0448\u043a\u0438-\u043c\u0438\u0448\u043a\u0438", "website": "https://vk.com/gunsbearspub"}}, {"type": "node", "id": 6833325430, "lat": 55.7881734, "lon": 37.8793675, "tags": {"amenity": "pub"}}, {"type": "node", "id": 6866820510, "lat": 55.795069, "lon": 37.7989261, "tags": {"amenity": "pub"}}, {"type": "node", "id": 6885605685, "lat": 55.7183792, "lon": 37.6477843, "tags": {"amenity": "pub", "name": "\u041f\u044c\u044f\u043d\u044b\u0439 \u0442\u044e\u043b\u0435\u043d\u044c", "opening_hours": "Mo-Su 15:00-23:00"}}, {"type": "node", "id": 6885605687, "lat": 55.8027291, "lon": 37.5840588, "tags": {"amenity": "pub", "name": "Beer's tale", "name:en": "Beer's tale"}}, {"type": "node", "id": 6885605689, "lat": 55.7287817, "lon": 37.6480185, "tags": {"amenity": "pub", "name": "13 Rules"}}, {"type": "node", "id": 6915246585, "lat": 55.7531005, "lon": 37.5868604, "tags": {"amenity": "pub", "check_date": "2022-07-13", "cuisine": "friture;chicken;burger;pasta;fish_and_chips", "internet_access": "wlan", "name": "Harat\u2019s", "opening_hours": "Mo-Su 12:00-06:00", "phone": "+7 499 7501445", "website": "https://moscow.harats.com/october/"}}, {"type": "node", "id": 6959964049, "lat": 55.7526778, "lon": 37.5981413, "tags": {"amenity": "pub", "contact:facebook": "https://www.facebook.com/abbey.playerspub", "contact:phone": "+7 495 0980048", "contact:website": "https://abbeyplayerstheatre.ru", "name": "Abbey Players", "opening_hours": "Mo-Fr 12:00-24:00; Sa,Su 00:00-06:00,12:00-24:00"}}, {"type": "node", "id": 6970241517, "lat": 55.8354239, "lon": 37.535745, "tags": {"amenity": "pub", "contact:instagram": "https://www.instagram.com/porternaya_/", "name": "\u041f\u043e\u0440\u0442\u0435\u0440\u043d\u0430\u044f", "opening_hours": "Mo-Su 12:00-23:00; Fr,Sa 12:00-24:00", "shop": "alcohol"}}, {"type": "node", "id": 6979790168, "lat": 55.7704585, "lon": 37.6708183, "tags": {"amenity": "pub", "contact:instagram": "https://www.instagram.com/mission.moscow/", "diet:vegan": "only", "name": "Mission", "opening_hours": "Mo-Fr 12:00-24:00; Sa,Su 00:00-02:00,12:00-24:00"}}, {"type": "node", "id": 7003294066, "lat": 55.7494658, "lon": 37.590993, "tags": {"amenity": "pub", "contact:phone": "+7 495 1616222", "contact:website": "http://www.16tons.ru", "name": "16 \u0442\u043e\u043d\u043d", "name:en": "16 tons", "name:ru": "16 \u0442\u043e\u043d\u043d", "opening_hours": "Mo-Fr 12:00-24:00; Sa,Su 00:00-02:00,12:00-24:00"}}, {"type": "node", "id": 7015079390, "lat": 55.7924022, "lon": 37.5270212, "tags": {"amenity": "pub", "cuisine": "irish", "name": "Harat's", "name:en": "Harat's Irish Pub"}}, {"type": "node", "id": 7030182285, "lat": 55.7133695, "lon": 37.8789809, "tags": {"addr:housenumber": "5", "addr:street": "\u0443\u043b\u0438\u0446\u0430 \u041d\u0430\u0442\u0430\u0448\u0438 \u041a\u0430\u0447\u0443\u0435\u0432\u0441\u043a\u043e\u0439", "amenity": "pub", "cuisine": "pizza;burger", "internet_access": "wlan", "name": "\u041f\u0438\u0432\u043e\u0442\u0435\u043a\u0430", "opening_hours": "Mo-Su 12:00-23:00", "phone": "+7 905 5584224"}}, {"type": "node", "id": 7102081185, "lat": 55.6481417, "lon": 37.6048447, "tags": {"amenity": "pub", "name": "\u041a\u0440\u0430\u0444\u0442\u044a 22", "opening_hours": "Mo-Su 17:00-05:00"}}, {"type": "node", "id": 7128150640, "lat": 55.7641785, "lon": 37.6168174, "tags": {"amenity": "pub", "contact:phone": "+7 495 4105222", "cuisine": "belgian", "name": "Manneken Pis", "opening_hours": "Su-Th 12:00-01:00; Fr-Sa 12:00-03:00"}}, {"type": "node", "id": 7185289334, "lat": 55.7758595, "lon": 37.5856541, "tags": {"amenity": "pub", "contact:phone": "+7 495 1459679", "contact:vk": "https://vk.com/haratsmsk", "contact:website": "https://moscow.harats.com", "name": "Harat's", "opening_hours": "Mo-Su 00:00-06:00,12:00-24:00"}}, {"type": "node", "id": 7188767326, "lat": 55.8082815, "lon": 37.5058544, "tags": {"amenity": "pub", "craft_beer": "yes"}}, {"type": "node", "id": 7196337536, "lat": 55.7015842, "lon": 37.8134244, "tags": {"amenity": "pub", "name": "\u0428\u0432\u0430\u0440\u0446 \u041a\u0430\u0439\u0437\u0435\u0440"}}, {"type": "node", "id": 7206956348, "lat": 55.7600028, "lon": 37.6460883, "tags": {"amenity": "pub", "check_date:opening_hours": "2021-10-30", "contact:phone": "+7 495 6285944", "contact:website": "http://www.klashterbar.ru", "name": "\u041a\u043b\u0430\u0448\u0442\u0435\u0440", "opening_hours": "Mo-Fr 11:00-24:00; Sa,Su 12:00-24:00"}}, {"type": "node", "id": 7223452347, "lat": 55.5975093, "lon": 37.7234236, "tags": {"amenity": "pub", "name": "\u041f\u0438\u0432\u043d\u043e\u0439 \u0434\u043e\u043c\u0438\u043a", "opening_hours": "Su-Th 10:00-23:00; Fr-Sa 10:00-24:00"}}, {"type": "node", "id": 7228575113, "lat": 55.6100271, "lon": 37.7281954, "tags": {"amenity": "pub", "brand": "\u041b\u0438\u0442.\u0420\u0430", "contact:vk": "https://vk.com/litra_beer", "contact:website": "https://litra-beer.ru", "drink:beer": "bottled", "drink:cider": "bottled", "drink:soft_drink": "bottled", "name": "\u041b\u0438\u0442.\u0420\u0430", "name:ru": "\u041b\u0438\u0442.\u0420\u0430", "opening_hours": "Mo-Su 10:00-23:00", "shop": "alcohol"}}, {"type": "node", "id": 7254231635, "lat": 55.8034058, "lon": 37.5825119, "tags": {"addr:housenumber": "75", "addr:street": "\u0411\u0443\u0442\u044b\u0440\u0441\u043a\u0430\u044f \u0443\u043b\u0438\u0446\u0430", "amenity": "pub", "contact:instagram": "https://www.instagram.com/delirium_tremens_pub/", "contact:phone": "+7 495 9801168", "contact:website": "http://delirium.pub", "name": "Delirium tremens", "opening_hours": "Mo-Su 12:00-24:00"}}, {"type": "node", "id": 7255673717, "lat": 55.8489556, "lon": 37.4753409, "tags": {"amenity": "pub", "contact:instagram": "https://www.instagram.com/cubapubmoscow/", "name": "Cuba", "opening_hours": "Mo-Fr 00:00-02:00,12:00-24:00; Sa,Su 00:00-03:00,12:00-24:00"}}, {"type": "node", "id": 7281069085, "lat": 55.6756165, "lon": 37.6648202, "tags": {"addr:postcode": "115487", "amenity": "pub", "email": "69pints.kolomenskaya@gmail.com", "internet_access": "wlan", "name": "69 \u041f\u0438\u043d\u0442", "name:en": "69 Pints", "opening_hours": "Su-Fr 12:00-23:00; Sa 11:00-24:00", "phone": "+7 977 6901969", "start_date": "2020-03-03", "website": "http://69pints.ru"}}, {"type": "node", "id": 7347779777, "lat": 55.6029933, "lon": 37.7277361, "tags": {"amenity": "pub", "name": "\u0410\u043b\u043a\u043e\u043c\u0430\u0440\u043a\u0435\u0442"}}, {"type": "node", "id": 7427786339, "lat": 55.8527276, "lon": 37.3510292, "tags": {"amenity": "pub", "contact:phone": "+7 495 7773954-105", "contact:website": "https://easypub.ru/", "name": "\u0418\u0437\u0438 \u043f\u0430\u0431", "opening_hours": "Mo-Fr 12:00-24:00; Sa,Su 00:00-02:00,12:00-24:00"}}, {"type": "node", "id": 7473993605, "lat": 55.8696926, "lon": 37.3227682, "tags": {"amenity": "pub", "contact:facebook": "https://www.facebook.com/NaRogahBar/", "contact:phone": "+7 916 1649977", "name": "\u041d\u0430 \u0440\u043e\u0433\u0430\u0445", "opening_hours": "Mo-Su 13:00-23:00"}}, {"type": "node", "id": 7639778285, "lat": 55.8064984, "lon": 37.5053726, "tags": {"amenity": "pub", "contact:instagram": "https://www.instagram.com/galaxy_bar_msk/", "contact:phone": "+7 906 0976321", "contact:website": "https://galaxy-bar.ru/", "name": "Galaxy", "official_name": "Galaxy Bar & Bottle Shop", "opening_hours": "Mo-Fr 15:00-24:00; Sa,Su 00:00-06:00,15:00-24:00"}}, {"type": "node", "id": 7688030190, "lat": 55.8165761, "lon": 37.3413585, "tags": {"amenity": "pub", "contact:phone": "+7 495 7773954-111", "contact:website": "https://easypub.ru/", "name": "\u0418\u0437\u0438 \u043f\u0430\u0431", "opening_hours": "Mo-Fr 12:00-24:00; Sa,Su 00:00-02:00,12:00-24:00"}}, {"type": "node", "id": 7700609302, "lat": 55.8368186, "lon": 37.3540789, "tags": {"amenity": "pub", "contact:instagram": "https://www.instagram.com/generalhmelmitino/", "contact:phone": "+7 916 7884690", "name": "\u0425\u043c\u042d\u043b\u044c", "opening_hours": "Mo-Fr 14:00-23:00; Sa,Su 12:00-23:00", "shop": "alcohol"}}, {"type": "node", "id": 7710236412, "lat": 55.7565104, "lon": 37.6351663, "tags": {"amenity": "pub", "contact:instagram": "https://www.instagram.com/daftrabbitpub/", "contact:phone": "+7 926 9066556", "name": "Daft Rabbit", "opening_hours": "Mo-Fr 17:00-24:00; Sa,Su 00:00-02:00,17:00-24:00"}}, {"type": "node", "id": 7714395921, "lat": 55.7068256, "lon": 37.433204, "tags": {"amenity": "pub", "contact:instagram": "https://www.instagram.com/grottbar_msk/", "contact:phone": "+7 495 7710323", "contact:website": "http://msk.grottbar.ru/", "microbrewery": "yes", "name": "Grott bar", "opening_hours": "Mo-Su 12:00-22:00; Fr,Sa 12:00-24:00"}}, {"type": "node", "id": 7756869044, "lat": 55.7826904, "lon": 37.6008126, "tags": {"amenity": "pub", "contact:instagram": "https://www.instagram.com/the312_/", "cuisine": "pizza", "name": "The 312", "opening_hours": "Mo-Fr 12:00-24:00; Sa,Su 00:00-02:00,12:00-24:00"}}, {"type": "node", "id": 7775914286, "lat": 55.7651494, "lon": 37.6084043, "tags": {"amenity": "pub", "contact:instagram": "https://www.instagram.com/bar8moscow/", "contact:website": "https://bar8.ru/", "name": "8 \u0433\u0440\u0430\u0434\u0443\u0441\u043e\u0432", "opening_hours": "Mo-Su 00:00-02:00,16:00-24:00"}}, {"type": "node", "id": 7817195316, "lat": 55.8741853, "lon": 37.3153397, "tags": {"amenity": "pub", "contact:phone": "+7 926 4745441", "name": "Old Irish Pub"}}, {"type": "node", "id": 7844045997, "lat": 55.6084126, "lon": 37.7460633, "tags": {"amenity": "pub", "name": "\u041f\u0443\u0448\u043a\u0438\u043d"}}, {"type": "node", "id": 7847381514, "lat": 55.850098, "lon": 37.6175576, "tags": {"amenity": "pub", "name": "\u041f\u0438\u0432\u0434\u043e\u043c", "shop": "alcohol"}}, {"type": "node", "id": 7922165787, "lat": 55.784863, "lon": 37.6599701, "tags": {"amenity": "pub", "contact:phone": "+7 906 0620076", "contact:website": "https://aut-pab.ru/", "level": "-1", "name": "\u0410\u0443\u0442 \u041f\u0430\u0431"}}, {"type": "node", "id": 7999905841, "lat": 55.8031507, "lon": 37.5917255, "tags": {"addr:city": "\u041c\u043e\u0441\u043a\u0432\u0430", "addr:housenumber": "2 \u043a6", "addr:street": "\u041d\u043e\u0432\u043e\u0434\u043c\u0438\u0442\u0440\u043e\u0432\u0441\u043a\u0430\u044f \u0443\u043b\u0438\u0446\u0430", "amenity": "pub", "contact:instagram": "https://www.instagram.com/465_savela/", "contact:vk": "https://vk.com/savelovsky465", "name": "\u041f\u0438\u0432\u043e\u0442\u0435\u043a\u0430 465", "opening_hours": "Mo-Th,Sa-Su 12:00-24:00; Fr 12:00-02:00", "phone": "+7 495 1506465;+7 999 3482191", "shop": "alcohol", "website": "https://pivoteka465.ru/"}}, {"type": "node", "id": 8000012890, "lat": 55.7538488, "lon": 37.5117764, "tags": {"addr:city": "\u041c\u043e\u0441\u043a\u0432\u0430", "addr:housenumber": "4", "addr:street": "\u0411\u043e\u043b\u044c\u0448\u0430\u044f \u0424\u0438\u043b\u0451\u0432\u0441\u043a\u0430\u044f \u0443\u043b\u0438\u0446\u0430", "amenity": "pub", "contact:instagram": "https://www.instagram.com/465fili/", "contact:vk": "https://vk.com/pivoteka465_fili", "name": "\u041f\u0438\u0432\u043e\u0442\u0435\u043a\u0430 465", "opening_hours": "Mo-Th,Su 12:00-24:00; Fr-Sa 12:00-02:00", "phone": "+7 495 1506465;+7 910 4600050", "shop": "alcohol", "website": "https://pivoteka465.ru"}}, {"type": "node", "id": 8001377391, "lat": 55.7723625, "lon": 37.6382482, "tags": {"amenity": "pub", "contact:phone": "+7 495 3638615", "contact:website": "https://beersidegastropub.com/", "name": "Beerside", "opening_hours": "Mo-Fr 12:00-24:00; Sa,Su 00:00-02:00,14:00-24:00"}}, {"type": "node", "id": 8004307701, "lat": 55.7994403, "lon": 37.7127801, "tags": {"amenity": "pub", "check_date": "2022-08-12", "email": "hello@13rules.ru", "name": "13 Rules", "opening_hours": "Mo-Th 13:00-24:00; Fr-Su 11:00-24:00", "phone": "+7 985 6858878", "website": "https://13rules.ru/"}}, {"type": "node", "id": 8012574929, "lat": 55.817885, "lon": 37.5738131, "tags": {"addr:city": "\u041c\u043e\u0441\u043a\u0432\u0430", "addr:housenumber": "13 \u043a2\u04414", "addr:street": "\u0414\u043c\u0438\u0442\u0440\u043e\u0432\u0441\u043a\u043e\u0435 \u0448\u043e\u0441\u0441\u0435", "amenity": "pub", "contact:facebook": "https://www.facebook.com/465.bar", "contact:vk": "https://vk.com/pivoteka465", "name": "\u041f\u0438\u0432\u043e\u0442\u0435\u043a\u0430 465", "opening_hours": "Mo-Th 12:00-24:00; Fr-Su 00:00-02:00,12:00-24:00", "phone": "+7 495 15064;+7 963 9236312"}}, {"type": "node", "id": 8019701966, "lat": 55.7820206, "lon": 37.7406731, "tags": {"addr:housenumber": "58\u0411", "addr:street": "\u0429\u0435\u0440\u0431\u0430\u043a\u043e\u0432\u0441\u043a\u0430\u044f \u0443\u043b\u0438\u0446\u0430", "amenity": "pub", "contact:instagram": "instagram.com/pub_druzey", "craft_beer": "yes", "name": "\u041f\u0430\u0431 \u0414\u0440\u0443\u0437\u0435\u0439", "opening_hours": "Mo-Su 13:00-23:00", "phone": "+7 916 0658921"}}, {"type": "node", "id": 8078135489, "lat": 55.8210743, "lon": 37.7860118, "tags": {"amenity": "pub"}}, {"type": "node", "id": 8104894082, "lat": 55.734833, "lon": 37.6197128, "tags": {"amenity": "pub", "contact:instagram": "https://www.instagram.com/paulanerbrauhaus", "contact:phone": "+7 495 3804806", "contact:website": "http://paulaner-brauhaus.ru", "cuisine": "german", "email": "zakazy@paulaner-brauhaus.ru", "name": "Paulaner Wirtshaus", "official_name": "Paulaner Wirtshaus Moscow Polyanka", "opening_hours": "Su-Th 12:00-24:00; Fr-Sa 12:00-02:00"}}, {"type": "node", "id": 8132280091, "lat": 55.8446795, "lon": 37.3722332, "tags": {"amenity": "pub", "contact:instagram": "https://www.instagram.com/bb_craft/", "drink:beer": "yes", "name": "BB craft", "opening_hours": "Mo-Fr 08:00-24:00; Sa,Su 10:00-24:00", "shop": "alcohol"}}, {"type": "node", "id": 8199803394, "lat": 55.7496964, "lon": 37.8598704, "tags": {"amenity": "pub", "name": "\u0427\u0430\u0441\u0442\u043d\u0430\u044f \u043f\u0438\u0432\u043e\u0432\u0430\u0440\u043d\u044f \"Shagov's\""}}, {"type": "node", "id": 8200910020, "lat": 55.8007175, "lon": 37.7086291, "tags": {"addr:housenumber": "90 \u04412", "addr:street": "\u041a\u0440\u0430\u0441\u043d\u043e\u0431\u043e\u0433\u0430\u0442\u044b\u0440\u0441\u043a\u0430\u044f \u0443\u043b\u0438\u0446\u0430", "amenity": "pub", "brewery": "yes", "check_date": "2022-06-17", "indoor_seating": "yes", "name": "\u041c\u0430\u043a\u041b\u0430\u0440\u0435\u043d'\u0441 \u041f\u0430\u0431", "opening_hours": "Mo-Th 12:00-00:00; Fr,Sa 12:00-02:00; Su 12:00-24:00", "opening_hours:covid19": "same", "operator": "\u041e\u041e\u041e", "outdoor_seating": "no", "payment:cash": "yes", "payment:credit_cards": "yes", "payment:mastercard": "yes", "payment:visa": "yes", "phone": "+7 495 2053323", "smoking": "no"}}, {"type": "node", "id": 8529652017, "lat": 55.7983055, "lon": 37.496685, "tags": {"addr:housenumber": "2 \u043a9", "addr:postcode": "123060", "amenity": "pub", "name": "\u041a\u0440\u044b\u043b\u044c\u044f"}}, {"type": "node", "id": 8691569645, "lat": 55.7502035, "lon": 37.535531, "tags": {"addr:housenumber": "19", "addr:street": "1-\u0439 \u041a\u0440\u0430\u0441\u043d\u043e\u0433\u0432\u0430\u0440\u0434\u0435\u0439\u0441\u043a\u0438\u0439 \u043f\u0440\u043e\u0435\u0437\u0434", "air_conditioning": "yes", "amenity": "pub", "check_date": "2022-05-17", "contact:website": "http://whitehart.ru/", "name": "White Hart", "official_name": "White Hart Pub City", "outdoor_seating": "no", "payment:cash": "yes", "payment:mastercard": "yes", "payment:visa": "yes", "real_fire": "no", "smoking": "outside"}}, {"type": "node", "id": 8705159632, "lat": 55.7495436, "lon": 37.8801492, "tags": {"amenity": "pub", "name": "\u041a\u0440\u0430\u043d \u0438 \u0432\u0435\u043d\u0442\u0438\u043b\u044c"}}, {"type": "node", "id": 8758186017, "lat": 55.7000778, "lon": 37.5019094, "tags": {"amenity": "pub", "description": "\u0411\u0430\u0440 \u043c\u0430\u0433\u0430\u0437\u0438\u043d \u0441 \u043f\u0440\u0438\u0432\u043e\u0437\u043d\u044b\u043c \u043f\u0438\u0432\u043e\u043c"}}, {"type": "node", "id": 8758650961, "lat": 55.8592384, "lon": 37.4485202, "tags": {"amenity": "pub", "name": "\u0425\u043c\u0435\u043b\u044c\u043d\u043e\u0439 \u041a\u0435\u0433", "outdoor_seating": "no"}}, {"type": "node", "id": 8792442931, "lat": 55.8915038, "lon": 37.4511876, "tags": {"amenity": "pub", "name": "Garage beer industry", "opening_hours": "Mo-Su 11:00-23:00", "operator": "\u0418\u041f \u042f\u043d\u0434\u0430 \u0412\u0430\u043b\u0435\u043d\u0442\u0438\u043d \u0412\u043b\u0430\u0434\u0438\u043c\u0438\u0440\u043e\u0432\u0438\u0447"}}, {"type": "node", "id": 8794643439, "lat": 55.7373241, "lon": 37.6167156, "tags": {"addr:housenumber": "24", "addr:street": "\u0443\u043b\u0438\u0446\u0430 \u041c\u0430\u043b\u0430\u044f \u042f\u043a\u0438\u043c\u0430\u043d\u043a\u0430", "amenity": "pub", "name": "\u0422\u0440\u0443\u0431\u044b \u0433\u043e\u0440\u044f\u0442", "opening_hours": "Su-Th 14:00-24:00, Fr,Sa 14:00-02:00", "website": "https://www.instagram.com/bar_truby_goryat/"}}, {"type": "node", "id": 8898052498, "lat": 55.688679, "lon": 37.5737035, "tags": {"amenity": "pub", "contact:instagram": "https://www.instagram.com/jolly_leprechaun/", "name": "\u0414\u0436\u043e\u043b\u0438 \u043b\u0435\u043f\u0440\u0435\u043a\u043e\u043d"}}, {"type": "node", "id": 8899871383, "lat": 55.8104987, "lon": 37.656671, "tags": {"amenity": "pub", "leisure": "sports_centre", "name": "\u0424\u043e\u0440\u0430", "sport": "billiards"}}, {"type": "node", "id": 8909647665, "lat": 55.8565489, "lon": 37.5575747, "tags": {"amenity": "pub", "contact:phone": "+7 991 2248520", "contact:website": "https://hopdog.ru", "microbrewery": "yes", "name": "\u0425\u043c\u0435\u043b\u044c\u043d\u0430\u044f \u0441\u043e\u0431\u0430\u043a\u0430", "opening_hours": "Mo-Su 12:00-24:00"}}, {"type": "node", "id": 8909966118, "lat": 55.661721, "lon": 37.4115097, "tags": {"amenity": "pub", "name": "Bayern", "opening_hours": "Mo-Su 13:00-23:00"}}, {"type": "node", "id": 9035039892, "lat": 55.6217528, "lon": 37.7263789, "tags": {"amenity": "pub", "level": "-1"}}, {"type": "node", "id": 9045032872, "lat": 55.7511491, "lon": 37.5259098, "tags": {"addr:city": "\u041c\u043e\u0441\u043a\u0432\u0430", "addr:housenumber": "2", "addr:postcode": "123290", "addr:street": "\u041c\u0443\u043a\u043e\u043c\u043e\u043b\u044c\u043d\u044b\u0439 \u043f\u0440\u043e\u0435\u0437\u0434", "amenity": "pub", "brewery": "various", "contact:instagram": "https://www.instagram.com/pgerceg/", "email": "pgerceg@yandex.ru", "level": "0", "name": "\u041f\u0438\u0432\u043d\u043e\u0439 \u0433\u0435\u0440\u0446\u043e\u0433", "opening_hours": "Mo-Su 11:00-23:00", "opening_hours:covid19": "same", "outdoor_seating": "no", "payment:cash": "yes", "payment:coins": "yes", "payment:contactless": "yes", "payment:credit_cards": "yes", "payment:debit_cards": "yes", "payment:mastercard": "yes", "payment:visa": "yes", "payment:visa_debit": "yes", "phone": "+79296516715", "smoking": "outside", "source": "local knowledge", "start_date": "2021-08-27", "website": "https://pgerceg.ru/", "wheelchair": "limited"}}, {"type": "node", "id": 9056916845, "lat": 55.61778, "lon": 37.6595841, "tags": {"amenity": "pub", "name": "\u041f\u0438\u0432\u043d\u043e\u0439 \u043f\u043e\u0433\u0440\u0435\u0431\u043e\u043a", "opening_hours": "Mo-Su 11:00-23:00"}}, {"type": "node", "id": 9057239193, "lat": 55.769308, "lon": 37.6319021, "tags": {"amenity": "pub", "contact:phone": "+7 495 0980078", "contact:vk": "https://vk.com/haratsmsk", "contact:website": "https://moscow.harats.com", "name": "Harat's", "opening_hours": "Mo-Su 00:00-06:00,12:00-24:00"}}, {"type": "node", "id": 9120458675, "lat": 55.7723461, "lon": 37.6841674, "tags": {"amenity": "pub", "check_date": "2022-06-08", "contact:instagram": "pub13moscow", "cuisine": "international;local;regional;russian;sausage", "internet_access": "wlan", "name": "Pub 13", "name:ru": "\u041f\u0430\u0431 13", "opening_hours": "Mo-Su 14:00-23:00"}}, {"type": "node", "id": 9183991399, "lat": 55.7541076, "lon": 37.6012126, "tags": {"amenity": "pub", "contact:instagram": "https://www.instagram.com/s.vek_pub/", "name": "\u0421\u0435\u0440\u0435\u0431\u0440\u044f\u043d\u044b\u0439 \u0432\u0435\u043a", "opening_hours": "Mo-Su 12:00-23:00"}}, {"type": "node", "id": 9198111262, "lat": 55.7638133, "lon": 37.6559468, "tags": {"amenity": "pub", "contact:instagram": "https://www.instagram.com/buddy.mcdaniel.msk/", "contact:phone": "+7 495 796 59 88", "contact:website": "https://mcdaniel.ru/", "name": "Buddy McDaniel", "opening_hours": "24/7"}}, {"type": "node", "id": 9212104679, "lat": 55.7125904, "lon": 37.8553629, "tags": {"amenity": "pub"}}, {"type": "node", "id": 9267237306, "lat": 55.6386462, "lon": 37.5221427, "tags": {"amenity": "pub", "name": "\u0416\u0438\u0432\u043e\u0435 \u043f\u0438\u0432\u043e"}}, {"type": "node", "id": 9312438519, "lat": 55.6764185, "lon": 37.723452, "tags": {"amenity": "pub", "name": "\u041f\u0438\u0432\u0441\u0442\u0430\u043d\u0446\u0438\u044f"}}, {"type": "node", "id": 9313113817, "lat": 55.6374052, "lon": 37.3398722, "tags": {"amenity": "pub", "name": "\u041f\u0438\u0432\u043d\u0430\u044f \u043f\u0430\u043b\u0438\u0442\u0440\u0430"}}, {"type": "node", "id": 9354058211, "lat": 55.7822722, "lon": 37.599334, "tags": {"amenity": "pub", "contact:instagram": "https://www.instagram.com/howth_head/", "level": "-1", "name": "Howth Head"}}, {"type": "node", "id": 9487308417, "lat": 55.6683383, "lon": 37.5639559, "tags": {"amenity": "pub", "name": "\u041f\u0438\u0432\u043d\u043e\u0439 \u0433\u0435\u0440\u0446\u043e\u0433"}}, {"type": "node", "id": 9524953854, "lat": 55.8897186, "lon": 37.5289591, "tags": {"addr:city": "\u041c\u043e\u0441\u043a\u0432\u0430", "addr:housenumber": "13 \u043a\u043e\u0440\u043f. 1", "addr:street": "\u041b\u043e\u0431\u043d\u0435\u043d\u0441\u043a\u0430\u044f \u0443\u043b\u0438\u0446\u0430", "amenity": "pub", "description": "\u041f\u0440\u0435\u0434\u0437\u0430\u043a\u0430\u0437 \u043e\u043d\u043b\u0430\u0439\u043d, Wi-Fi, \u0441\u043f\u043e\u0440\u0442\u0438\u0432\u043d\u044b\u0435 \u0442\u0440\u0430\u043d\u0441\u043b\u044f\u0446\u0438\u0438, \u043a\u0440\u0430\u0444\u0442\u043e\u0432\u043e\u0435 \u043f\u0438\u0432\u043e. \u041e\u0441\u043e\u0431\u0435\u043d\u043d\u043e\u0441\u0442\u0438 \u0437\u0430\u0432\u0435\u0434\u0435\u043d\u0438\u044f: \u0431\u0430\u0440\u043d\u0430\u044f \u0441\u0442\u043e\u0439\u043a\u0430, \u043c\u043e\u0436\u043d\u043e \u0441 \u0436\u0438\u0432\u043e\u0442\u043d\u044b\u043c\u0438. \u0422\u0438\u043f \u0437\u0430\u0432\u0435\u0434\u0435\u043d\u0438\u044f: \u043f\u0438\u0432\u043d\u043e\u0439 \u0440\u0435\u0441\u0442\u043e\u0440\u0430\u043d.", "name": "Local Beer", "opening_hours": "Mo-Fr 13:00-23:00; Sa-Su 11:00-23:00", "phone": "+7 (930) 934-17-20, +7 (999) 987-82-85"}}, {"type": "node", "id": 9670053962, "lat": 55.7807001, "lon": 37.5922725, "tags": {"amenity": "pub", "contact:phone": "+7 965 371 47 31", "name": "Suckin' Diesel"}}, {"type": "node", "id": 9696184621, "lat": 55.7742008, "lon": 37.6179385, "tags": {"amenity": "pub", "contact:instagram": "https://www.instagram.com/redlion.msk/", "name": "Red Lion", "opening_hours": "Mo,Tu 12:00-24:00; We-Su 00:00-05:00,12:00-24:00"}}, {"type": "node", "id": 9749580253, "lat": 55.7440138, "lon": 37.6564559, "tags": {"amenity": "pub", "check_date": "2022-05-17", "name": "Craft draft local pub"}}, {"type": "node", "id": 9751649068, "lat": 55.7762366, "lon": 37.6793839, "tags": {"amenity": "pub", "contact:instagram": "https://www.instagram.com/axiompub_msk", "name": "Axiom", "opening_hours": "Mo-Sa 11:00-23:00; Su 12:00-23:00"}}, {"type": "node", "id": 9792158742, "lat": 55.89267, "lon": 37.47818, "tags": {"amenity": "pub"}}, {"type": "node", "id": 9837040168, "lat": 55.7254606, "lon": 37.6644292, "tags": {"amenity": "pub", "opening_hours": "10:00-23:00"}}, {"type": "node", "id": 9860430618, "lat": 55.6756553, "lon": 37.7454348, "tags": {"amenity": "pub", "name": "\u0412\u043a\u0443\u0441 90-\u0445"}}, {"type": "node", "id": 9868880718, "lat": 55.7762477, "lon": 37.6770462, "tags": {"amenity": "pub", "name": "\u041a\u043e\u043c\u0438\u0442\u0435\u0442"}}, {"type": "node", "id": 9868880719, "lat": 55.7763059, "lon": 37.6771968, "tags": {"amenity": "pub", "name": "Bob\u0451\u0451r"}}, {"type": "node", "id": 9870549529, "lat": 55.7955611, "lon": 37.7071736, "tags": {"amenity": "pub", "brewery": "yes", "microbrewery": "no", "name": "\u0411\u0438\u0440 \u043c\u0430\u043d\u044c\u044f\u043a", "smoking": "no"}}, {"type": "node", "id": 9885958895, "lat": 55.7608879, "lon": 37.6227276, "tags": {"amenity": "pub", "contact:phone": "+7 499 4000323", "contact:vk": "https://vk.com/haratsmsk", "contact:website": "https://moscow.harats.com", "name": "Harat's"}}, {"type": "node", "id": 9935394992, "lat": 55.6131895, "lon": 37.708967, "tags": {"amenity": "pub", "inscription": "\u041f\u0438\u0432\u043e \u0440\u044b\u0431\u0430 \u043a\u043e\u043b\u0431\u0430\u0441\u0430", "shop": "alcohol"}}, {"type": "node", "id": 9975203440, "lat": 55.86612, "lon": 37.49351, "tags": {"amenity": "pub", "name": "R&G"}}, {"type": "node", "id": 10000028301, "lat": 55.7290734, "lon": 37.6305528, "tags": {"amenity": "pub", "check_date": "2022-09-04", "name": "Hart's Irish pub", "name:en": "Hart's Irish pub", "name:ru": "\u0418\u0440\u043b\u0430\u043d\u0434\u0441\u043a\u0438\u0439 \u043f\u0430\u0431"}}, {"type": "way", "id": 37645236, "nodes": [441302145, 441302149, 441302152, 441302154, 441302145], "tags": {"addr:housenumber": "25 \u04411", "addr:street": "\u0443\u043b\u0438\u0446\u0430 \u041a\u0440\u0430\u0441\u043d\u0430\u044f \u041f\u0440\u0435\u0441\u043d\u044f", "amenity": "pub", "building": "yes", "building:levels": "2", "contact:phone": "+7 499 2525540", "contact:website": "http://www.rmcom.ru/page-john-bull", "name": "John Bull", "operator": "\u0420\u043e\u043c\u0430\u0448\u043a\u0430 \u041c\u0435\u043d\u0435\u0434\u0436\u043c\u0435\u043d\u0442"}}, {"type": "way", "id": 60903152, "nodes": [762258459, 3810295772, 762258306, 762258767, 4261811914, 2125969465, 3810295788, 762258459], "tags": {"addr:housenumber": "29 \u04413", "addr:street": "\u041d\u043e\u0432\u043e\u0440\u044f\u0437\u0430\u043d\u0441\u043a\u0430\u044f \u0443\u043b\u0438\u0446\u0430", "amenity": "pub", "building": "yes", "building:levels": "1", "description": "\u041a\u043b\u0443\u0431 \u043b\u044e\u0431\u0438\u0442\u0435\u043b\u0435\u0439 \u0430\u0432\u0442\u043e\u0440\u0441\u043a\u043e\u0439 \u043f\u0435\u0441\u043d\u0438", "name": "\u0410\u0440\u0445\u0435\u043e\u043b\u043e\u0433\u0438\u044f", "opening_hours": "17:30-24:00", "phone": "+7 495 5065942", "smoking": "no", "website": "http://vk.com/club472701", "wheelchair": "no"}}, {"type": "way", "id": 72413040, "nodes": [859937042, 859940849, 859940010, 859938210, 859937042], "tags": {"addr:city": "\u041c\u043e\u0441\u043a\u0432\u0430", "addr:housenumber": "71 \u044116", "addr:street": "\u0418\u0437\u043c\u0430\u0439\u043b\u043e\u0432\u0441\u043a\u043e\u0435 \u0448\u043e\u0441\u0441\u0435", "amenity": "pub", "brand": "\u041a\u0440\u0443\u0436\u043a\u0430", "brand:wikidata": "Q6439558", "brand:wikipedia": "ru:\u041a\u0440\u0443\u0436\u043a\u0430 (\u0441\u0435\u0442\u044c \u0440\u0435\u0441\u0442\u043e\u0440\u0430\u043d\u043e\u0432)", "building": "commercial", "building:levels": "2", "contact:facebook": "https://www.facebook.com/KRUZHKA.MOSCOW", "contact:instagram": "https://www.instagram.com/kruzhkaru", "contact:twitter": "https://twitter.com/Kruzhkaru", "contact:website": "http://www.kruzhka.ru", "craft_beer": "yes", "diet:vegetarian": "no", "food": "yes", "name": "\u041a\u0440\u0443\u0436\u043a\u0430", "name:ru": "\u041a\u0440\u0443\u0436\u043a\u0430"}}, {"type": "way", "id": 90454228, "nodes": [1049489395, 5796485833, 1049489404, 1049489415, 1049489420, 1049489395], "tags": {"addr:housenumber": "97\u0411", "addr:postcode": "127572", "addr:street": "\u0410\u043b\u0442\u0443\u0444\u044c\u0435\u0432\u0441\u043a\u043e\u0435 \u0448\u043e\u0441\u0441\u0435", "amenity": "pub", "building": "yes", "contact:instagram": "https://www.instagram.com/gotopitest", "contact:phone": "+7 800 7001390", "contact:vk": "https://vk.com/gotopitest", "contact:website": "http://pitest.ru", "name": "\u041f\u0438\u0442\u044c \u0435\u0441\u0442\u044c!", "opening_hours": "Mo-Su 12:00-03:00", "operator": "\u0418\u041f \u041f\u0430\u0440\u0438\u043b\u043e\u0432 \u0415\u0433\u043e\u0440 \u041d\u0438\u043a\u043e\u043b\u0430\u0435\u0432\u0438\u0447"}}, {"type": "way", "id": 316481153, "nodes": [3226044368, 3226044369, 3226044370, 3226044371, 3226044368], "tags": {"addr:city": "\u041c\u043e\u0441\u043a\u0432\u0430", "addr:housenumber": "3 \u04411", "addr:street": "\u0443\u043b\u0438\u0446\u0430 \u041c\u0430\u0440\u0448\u0430\u043b\u0430 \u0427\u0443\u0439\u043a\u043e\u0432\u0430", "amenity": "pub", "building": "yes", "building:levels": "1", "name": "\u0428\u0442\u0430\u0431"}}, {"type": "way", "id": 327752430, "nodes": [3345655530, 3345655531, 3345655529, 3345655528, 3345655530], "tags": {"addr:housenumber": "7\u0410", "addr:street": "2-\u0439 \u0421\u0442\u0440\u0435\u043b\u0435\u0446\u043a\u0438\u0439 \u043f\u0440\u043e\u0435\u0437\u0434", "amenity": "pub", "building": "yes", "building:levels": "1", "name": "Wooden House", "opening_hours": "Mo-Su 12:00-23:00"}}]}