{"version": 0.6, "generator": "Overpass API 0.7.59 e21c39fe", "osm3s": {"timestamp_osm_base": "2022-11-03T00:29:00Z", "copyright": "The data included in this document is from www.openstreetmap.org. The data is made available under ODbL."}, "elements": [{"type": "node", "id": 276276512, "lat": 55.7503377, "lon": 37.4969626, "tags": {"amenity": "nightclub"}}, {"type": "node", "id": 441310270, "lat": 55.7642061, "lon": 37.5641603}, {"type": "node", "id": 441310272, "lat": 55.7642037, "lon": 37.5646033}, {"type": "node", "id": 441310274, "lat": 55.7643627, "lon": 37.5645679}, {"type": "node", "id": 441310277, "lat": 55.7644014, "lon": 37.564213}, {"type": "node", "id": 1057054742, "lat": 55.5462292, "lon": 37.563689, "tags": {"amenity": "nightclub", "name": "\u0413\u0430\u0447 \u041a\u0430\u0444\u0435"}}, {"type": "node", "id": 1902203781, "lat": 55.7585544, "lon": 37.632779, "tags": {"amenity": "nightclub", "contact:facebook": "https://www.facebook.com/PropagandaMoscow", "contact:instagram": "https://www.instagram.com/propagandamoscow", "contact:phone": "+7 495 6245732", "contact:website": "http://www.propagandamoscow.com", "name": "\u041f\u0440\u043e\u043f\u0430\u0433\u0430\u043d\u0434\u0430", "name:de": "Propaganda", "name:en": "Propaganda", "name:ru": "\u041f\u0440\u043e\u043f\u0430\u0433\u0430\u043d\u0434\u0430", "opening_hours": "Mo-Fr 11:30-06:00, Sa,Su 12:00-06:00", "phone": "+7 495 6245732", "reservation": "recommended"}}, {"type": "node", "id": 2172109756, "lat": 55.6622691, "lon": 37.7599186, "tags": {"amenity": "nightclub"}}, {"type": "node", "id": 2201292631, "lat": 55.7663362, "lon": 37.6043876, "tags": {"amenity": "nightclub", "name": "Look in Rooms"}}, {"type": "node", "id": 2201292632, "lat": 55.7661253, "lon": 37.6050358, "tags": {"amenity": "nightclub", "name": "\u0418\u0437\u0432\u0435\u0441\u0442\u0438\u044f Hall", "website": "https://izvestia-hall.ru/"}}, {"type": "node", "id": 2339811283, "lat": 55.7436532, "lon": 37.6278895, "tags": {"addr:city": "\u041c\u043e\u0441\u043a\u0432\u0430", "addr:housenumber": "10", "addr:street": "\u041f\u044f\u0442\u043d\u0438\u0446\u043a\u0430\u044f \u0443\u043b\u0438\u0446\u0430", "amenity": "nightclub", "contact:phone": "+7 495 9538535", "contact:website": "http://karaoke-vesna.ru", "karaoke": "yes", "name": "\u0412\u0435\u0441\u043d\u0430", "wheelchair": "no"}}, {"type": "node", "id": 2410690968, "lat": 55.7646067, "lon": 37.4716109}, {"type": "node", "id": 2410690974, "lat": 55.7647082, "lon": 37.4724441}, {"type": "node", "id": 2410690977, "lat": 55.7651069, "lon": 37.4733203}, {"type": "node", "id": 2410690980, "lat": 55.7655008, "lon": 37.4715121}, {"type": "node", "id": 2410690982, "lat": 55.7656433, "lon": 37.4733031}, {"type": "node", "id": 2411916658, "lat": 55.7399116, "lon": 37.610336, "tags": {"amenity": "nightclub", "contact:facebook": "https://www.facebook.com/BarRollingStone", "contact:phone": "+7 495 5040932", "name": "Rolling Stone"}}, {"type": "node", "id": 2430132297, "lat": 55.644994, "lon": 37.348302, "tags": {"amenity": "nightclub", "name": "\u0413\u0430\u0440\u043c\u043e\u043d\u0438\u044f", "opening_hours": "Mo-Tu 10:00-21:00; Th-Sa 10:00-21:00; Su 10:00-17:00"}}, {"type": "node", "id": 2442301024, "lat": 55.6475153, "lon": 37.7427415, "tags": {"amenity": "nightclub", "name": "Oscar"}}, {"type": "node", "id": 2476422653, "lat": 55.7629119, "lon": 37.6368117, "tags": {"amenity": "nightclub", "contact:phone": "+7 495 6230082", "contact:website": "http://www.club-petrovich.ru", "level": "-1", "name": "\u041f\u0435\u0442\u0440\u043e\u0432\u0438\u0447", "name:en": "Petrovich", "opening_hours": "Mo-We 11:30-24:00, Th 11:30-02:00, Fr 11:30-05:00, Sa 14:00-05:00, Su 14:00-24:00"}}, {"type": "node", "id": 2477516811, "lat": 55.7277949, "lon": 37.6124312, "tags": {"amenity": "nightclub", "check_date": "2022-08-05", "contact:instagram": "https://www.instagram.com/miodjcafe/", "contact:phone": "+7 499 2385848", "contact:website": "http://cafemio.ru", "name": "Mio"}}, {"type": "node", "id": 2671597053, "lat": 55.7671153, "lon": 37.6073573, "tags": {"amenity": "nightclub", "contact:phone": "+7 985 9203969", "contact:website": "http://www.karaoke-pickup.ru", "karaoke": "yes", "name": "Pick Up", "opening_hours": "Mo-Fr 00:00-06:00,21:00-24:00; Sa,Su 00:00-07:00,21:00-24:00"}}, {"type": "node", "id": 2733867726, "lat": 55.7096648, "lon": 37.5953229, "tags": {"amenity": "nightclub", "contact:phone": "+7 495 2301030", "contact:website": "https://glavclub.com", "name": "\u0413\u043b\u0430\u0432Club green concert", "opening_hours:signed": "no", "wheelchair": "no"}}, {"type": "node", "id": 2798268299, "lat": 55.7066941, "lon": 37.4670531, "tags": {"amenity": "nightclub", "name": "\u0417\u0435\u0431\u0440\u0430"}}, {"type": "node", "id": 3139885057, "lat": 55.7604664, "lon": 37.5967358, "tags": {"amenity": "nightclub", "contact:phone": "+7 925 1111774", "contact:website": "http://karaokeclub-golos.ru", "karaoke": "yes", "name": "\u0413\u043e\u043b\u043e\u0441", "opening_hours": "Mo-Su 00:00-06:00,18:00-24:00"}}, {"type": "node", "id": 3214921011, "lat": 55.764179, "lon": 37.5644764}, {"type": "node", "id": 3214921012, "lat": 55.7642138, "lon": 37.5644858}, {"type": "node", "id": 3214921014, "lat": 55.7643756, "lon": 37.5644161}, {"type": "node", "id": 3214921015, "lat": 55.7643839, "lon": 37.5644183}, {"type": "node", "id": 3243291061, "lat": 55.7569875, "lon": 37.6348745, "tags": {"amenity": "nightclub", "contact:facebook": "https://www.facebook.com/zvezdakaraokeclub", "contact:phone": "+7 495 6242906", "contact:website": "http://\u043a\u0430\u0440\u0430\u043e\u043a\u0435\u0437\u0432\u0435\u0437\u0434\u0430.\u0440\u0444", "karaoke": "yes", "name": "\u0417\u0432\u0435\u0437\u0434\u0430 \u043a\u0430\u0440\u0430\u043e\u043a\u0435", "name:en": "Zvezda karaoke"}}, {"type": "node", "id": 3312002399, "lat": 55.7674032, "lon": 37.5977018, "tags": {"amenity": "nightclub", "check_date:opening_hours": "2022-03-21", "contact:phone": "+7 495 2206761", "contact:website": "https://karaokelights.ru/", "name": "Lights", "opening_hours": "Mo-Su 00:00-06:00,18:00-24:00"}}, {"type": "node", "id": 3325926894, "lat": 55.7430611, "lon": 37.6532948, "tags": {"amenity": "nightclub", "check_date": "2022-06-07", "contact:website": "https://butmanclub.ru", "name": "\u0414\u0436\u0430\u0437-\u043a\u043b\u0443\u0431 \u0418\u0433\u043e\u0440\u044f \u0411\u0443\u0442\u043c\u0430\u043d\u0430"}}, {"type": "node", "id": 3338763456, "lat": 55.752134, "lon": 37.5851718, "tags": {"amenity": "nightclub", "contact:phone": "+7 495 7877577", "contact:website": "http://www.royalarbat.ru", "karaoke": "yes", "name": "Royal Arbat", "opening_hours": "Fr 18:00-24:00; Sa 00:00-08:00,18:00-24:00; Su 00:00-08:00"}}, {"type": "node", "id": 3521487183, "lat": 55.7397534, "lon": 37.609952, "tags": {"amenity": "nightclub", "check_date": "2022-07-19", "contact:facebook": "https://www.facebook.com/ilovegipsy", "contact:phone": "+7 495 6698693", "contact:website": "http://www.bargipsy.ru", "name": "Gipsy"}}, {"type": "node", "id": 3789162726, "lat": 55.8357322, "lon": 37.3859908, "tags": {"amenity": "nightclub", "contact:phone": "+7 925 7778655", "contact:website": "http://la-fa.biz", "karaoke": "yes", "name": "\u041b\u044f-\u0424\u0430"}}, {"type": "node", "id": 3891759715, "lat": 55.7183045, "lon": 37.6456302}, {"type": "node", "id": 3891759716, "lat": 55.7183056, "lon": 37.6459323}, {"type": "node", "id": 3891759719, "lat": 55.7183259, "lon": 37.6459321}, {"type": "node", "id": 3891759720, "lat": 55.7183264, "lon": 37.6459702}, {"type": "node", "id": 3891759727, "lat": 55.7183915, "lon": 37.645636}, {"type": "node", "id": 3891759728, "lat": 55.7183928, "lon": 37.6459695}, {"type": "node", "id": 3961320398, "lat": 55.7996597, "lon": 37.5322071, "tags": {"amenity": "nightclub", "contact:phone": "+7 499 1575221", "contact:website": "http://karaoketreli.ru", "karaoke": "yes", "name": "\u0422\u0440\u0435\u043b\u0438", "opening_hours": "Mo 00:00-04:00,17:00-24:00; Tu-Su 00:00-06:00,17:00-24:00"}}, {"type": "node", "id": 4189408774, "lat": 55.7365817, "lon": 37.5899624, "tags": {"addr:housenumber": "25", "addr:street": "\u0417\u0443\u0431\u043e\u0432\u0441\u043a\u0438\u0439 \u0431\u0443\u043b\u044c\u0432\u0430\u0440", "amenity": "nightclub", "contact:phone": "+7 495 3746969", "contact:website": "http://rasputinclub.ru", "name": "\u0420\u0430\u0441\u043f\u0443\u0442\u0438\u043d", "opening_hours": "Mo-Su 20:00-06:00"}}, {"type": "node", "id": 4193727571, "lat": 55.7609105, "lon": 37.6224326, "tags": {"amenity": "nightclub", "contact:phone": "+7 495 7843868", "contact:website": "http://kadrilkaraoke.ru", "karaoke": "yes", "name": "\u041a\u0430\u0434\u0440\u0438\u043b\u044c", "opening_hours": "Su-Th 21:00-06:00, Fr,Sa 19:00-06:00"}}, {"type": "node", "id": 4268484011, "lat": 55.8243454, "lon": 37.6320615, "tags": {"amenity": "nightclub", "name": "Mezzo forte"}}, {"type": "node", "id": 4285790596, "lat": 55.7422546, "lon": 37.6183056, "tags": {"addr:postcode": "115035", "amenity": "nightclub", "contact:website": "http://www.tretyakov-club.ru", "karaoke": "yes", "name": "\u0422\u0440\u0435\u0442\u044c\u044f\u043a\u043e\u0432", "name:en": "Tretyakov", "opening_hours": "We 19:00-24:00; Th-Sa 00:00-06:00,19:00-24:00; Su 00:00-06:00", "phone": "+7 968 6050202"}}, {"type": "node", "id": 4311488212, "lat": 55.7399658, "lon": 37.6539358, "tags": {"amenity": "nightclub", "check_date": "2022-06-20", "contact:phone": "+7 495 6798688", "contact:website": "http://www.dorffman.com", "internet_access": "wlan", "karaoke": "yes", "name": "Dorffman", "opening_hours": "Mo-Su 20:00-06:00"}}, {"type": "node", "id": 4311488225, "lat": 55.7401567, "lon": 37.6538904, "tags": {"amenity": "nightclub", "contact:phone": "+7 495 9121083", "contact:website": "http://www.echo-karaoke.ru", "karaoke": "yes", "name": "\u042d\u0445\u043e", "opening_hours": "Mo-Su 00:00-06:00,17:00-24:00"}}, {"type": "node", "id": 4342480653, "lat": 55.7664736, "lon": 37.6072701, "tags": {"amenity": "nightclub", "contact:phone": "+7 495 2664805", "karaoke": "yes", "name": "#\u0429\u0430\u0441\u0441\u043f\u043e\u044e", "opening_hours": "Mo-Su 00:00-06:00,21:00-24:00"}}, {"type": "node", "id": 4344518805, "lat": 55.7631123, "lon": 37.6362782, "tags": {"amenity": "nightclub", "check_date:opening_hours": "2021-11-14", "contact:phone": "+7 499 4994037", "contact:website": "http://solokaraoke.ru", "karaoke": "yes", "name": "\u0421\u043e\u043b\u043e", "opening_hours": "Mo-Su 00:00-06:00,18:00-24:00"}}, {"type": "node", "id": 4423779399, "lat": 55.8639155, "lon": 37.551238, "tags": {"amenity": "nightclub", "contact:phone": "+7 967 0331133", "name": "Diamond", "opening_hours": "Mo-Su 00:00-06:00,18:00-24:00"}}, {"type": "node", "id": 4437392889, "lat": 55.7787615, "lon": 37.6006704, "tags": {"amenity": "nightclub", "name": "\u0413\u0440\u0451\u0437\u044b", "name:ru": "\u0413\u0440\u0451\u0437\u044b"}}, {"type": "node", "id": 4451074142, "lat": 55.8317236, "lon": 37.3024719, "tags": {"amenity": "nightclub", "contact:phone": "+7 925 5093398", "contact:website": "http://www.deniroclub.ru", "name": "De Niro"}}, {"type": "node", "id": 4520549354, "lat": 55.7601757, "lon": 37.6655427, "tags": {"amenity": "nightclub", "contact:phone": "+7 495 7418383", "contact:website": "http://www.gazgolderclub.ru", "name": "Gazgolder"}}, {"type": "node", "id": 4603893140, "lat": 55.7601648, "lon": 37.586075, "tags": {"amenity": "nightclub", "name": "Flava"}}, {"type": "node", "id": 4606645303, "lat": 55.7610249, "lon": 37.6323257, "tags": {"amenity": "nightclub", "contact:facebook": "https://www.facebook.com/bowiekaraoke", "contact:phone": "+7 925 5965119", "contact:website": "http://bowiebar.ru", "internet_access": "wlan", "karaoke": "yes", "name": "Bowie", "name:en": "Bowie", "opening_hours": "Mo-Su 00:00-06:00,18:00-24:00"}}, {"type": "node", "id": 4618650302, "lat": 55.7828969, "lon": 37.6009544, "tags": {"amenity": "nightclub", "contact:phone": "+7 499 4994036", "contact:website": "http://solokaraoke.ru", "karaoke": "yes", "name": "\u0421\u043e\u043b\u043e", "opening_hours": "Mo-Su 00:00-06:00,18:00-24:00"}}, {"type": "node", "id": 4676873966, "lat": 55.7603265, "lon": 37.6395289, "tags": {"amenity": "nightclub", "contact:facebook": "https://www.facebook.com/suzuranmoscow", "contact:phone": "+7 495 6210756", "contact:website": "http://suzuranbar.com", "hookah": "yes", "name": "Suzuran"}}, {"type": "node", "id": 4724713084, "lat": 55.8125153, "lon": 37.8218451, "tags": {"amenity": "nightclub", "name": "\u0412\u043e\u0441\u0442\u043e\u043a"}}, {"type": "node", "id": 4753819407, "lat": 55.8676711, "lon": 37.6066422, "tags": {"addr:street": "\u0421\u0435\u0432\u0435\u0440\u043d\u044b\u0439 \u0431\u0443\u043b\u044c\u0432\u0430\u0440", "amenity": "nightclub", "name": "\u041f\u044f\u0442\u044c \u041f\u044f\u0442\u043d\u0438\u0446", "opening_hours": "18:00-06:00", "phone": "+7 499 2028875"}}, {"type": "node", "id": 4872715821, "lat": 55.7835345, "lon": 37.5746826, "tags": {"amenity": "nightclub", "name": "\u041b\u0435\u043d\u0438\u043d\u0433\u0440\u0430\u0434", "website": "https://clubleningrad.ru"}}, {"type": "node", "id": 4904973168, "lat": 55.7520023, "lon": 37.5870115, "tags": {"amenity": "nightclub", "contact:phone": "+7 495 7726071", "contact:website": "http://whoiswhovip.ru", "karaoke": "yes", "name": "Who is Who", "opening_hours": "Mo-Su 00:00-06:00,21:00-24:00"}}, {"type": "node", "id": 4938488922, "lat": 55.8078962, "lon": 37.5116817, "tags": {"amenity": "nightclub", "contact:phone": "+7 495 5405540", "contact:website": "http://adrenaline-stadium.ru", "name": "Adrenaline Stadium", "name:en": "Stadium"}}, {"type": "node", "id": 5018515915, "lat": 55.7166548, "lon": 37.8870601, "tags": {"amenity": "nightclub", "name": "\u041f\u0430\u043f\u0440\u0438\u043a\u0430"}}, {"type": "node", "id": 5018521570, "lat": 55.7157694, "lon": 37.881347, "tags": {"amenity": "nightclub", "name": "\u0414\u0443\u044d\u0442"}}, {"type": "node", "id": 5030973224, "lat": 55.8938404, "lon": 37.6146781, "tags": {"amenity": "nightclub", "name": "\u0421\u043e\u0432\u0430", "name:ru": "\u0421\u043e\u0432\u0430"}}, {"type": "node", "id": 5178477248, "lat": 55.731944, "lon": 37.6344247, "tags": {"amenity": "nightclub", "contact:phone": "+7 495 5321797", "contact:website": "http://solokaraoke.ru", "karaoke": "yes", "name": "\u0421\u043e\u043b\u043e", "opening_hours": "Mo-Su 00:00-06:00,18:00-24:00"}}, {"type": "node", "id": 5199068589, "lat": 55.7575852, "lon": 37.6331435, "tags": {"amenity": "nightclub", "contact:phone": "+7 495 9161001", "contact:website": "http://karaoke-maska.ru/", "karaoke": "yes", "name": "\u041c\u0430\u0441\u043a\u0430", "opening_hours": "Mo-Su 00:00-06:00,18:00-24:00"}}, {"type": "node", "id": 5423543160, "lat": 55.7588128, "lon": 37.639816, "tags": {"amenity": "nightclub", "contact:phone": "+7 495 7984098", "contact:website": "http://www.yanpen.ru/", "karaoke": "yes", "name": "\u042f\u043d \u041f\u0435\u043d", "opening_hours": "Mo-Su 00:00-06:00,18:00-24:00"}}, {"type": "node", "id": 5459239958, "lat": 55.7763098, "lon": 37.6610539, "tags": {"addr:postcode": "107140", "amenity": "nightclub", "email": "democlub@list.ru", "name": "\u0410\u0444\u0438\u0448\u0430", "name:en": "Afisha", "opening_hours": "Mo-Fr 15:00-24:00; Sa-Su 16:00-24:00", "phone": "+7 495 1311751", "website": "http://afishaclub.ru"}}, {"type": "node", "id": 5525766324, "lat": 55.7520338, "lon": 37.8593408, "tags": {"amenity": "nightclub", "name": "Dictator", "website": "http://marselle.group/club/"}}, {"type": "node", "id": 5541360948, "lat": 55.7415659, "lon": 37.6598726, "tags": {"addr:city": "\u041c\u043e\u0441\u043a\u0432\u0430", "addr:housenumber": "4 \u04415", "addr:postcode": "109004", "addr:street": "\u0422\u043e\u0432\u0430\u0440\u0438\u0449\u0435\u0441\u043a\u0438\u0439 \u043f\u0435\u0440\u0435\u0443\u043b\u043e\u043a", "amenity": "nightclub", "contact:facebook": "https://www.facebook.com/smenamoscow", "name": "\u0421\u043c\u0435\u043d\u0430", "opening_hours": "Mo-Th 11:00-00:00; Fr-Sa 11:00-06:00; Su 11:00-00:00", "phone": "+7 977 6640402", "wheelchair": "no"}}, {"type": "node", "id": 5606098605, "lat": 55.7642123, "lon": 37.5645037, "tags": {"entrance": "service"}}, {"type": "node", "id": 5606098606, "lat": 55.7643912, "lon": 37.5642102, "tags": {"entrance": "yes"}}, {"type": "node", "id": 5606098607, "lat": 55.7642555, "lon": 37.5641736, "tags": {"entrance": "main"}}, {"type": "node", "id": 5610264356, "lat": 55.7679319, "lon": 37.6448974, "tags": {"amenity": "nightclub", "contact:phone": "+7 495 7900885", "contact:vk": "https://vk.com/purpuribar", "name": "Pur Pur iBar"}}, {"type": "node", "id": 5863435088, "lat": 55.7704781, "lon": 37.5968429, "tags": {"amenity": "nightclub", "contact:website": "http://solokaraoke.ru/", "karaoke": "yes", "name": "\u0421\u043e\u043b\u043e", "opening_hours": "Mo-Su 00:00-06:00,18:00-24:00"}}, {"type": "node", "id": 6046399486, "lat": 55.7608241, "lon": 37.6631424, "tags": {"amenity": "nightclub", "name": "\u041c\u043e\u0441\u043a\u0432\u0430", "opening_hours": "Mo-Sa 13:00-24:00", "phone": "+7 925 2860041", "website": "http://clubmoskva.ru/"}}, {"type": "node", "id": 6489147069, "lat": 55.7196599, "lon": 37.6865011, "tags": {"amenity": "nightclub", "contact:facebook": "https://www.facebook.com/mutabor.moscow/", "contact:website": "https://mutabor.club/", "name": "Mutabor"}}, {"type": "node", "id": 6598784981, "lat": 55.7492031, "lon": 37.6967847, "tags": {"alt_name": "\u0410\u0440\u0435\u043d\u0430", "amenity": "nightclub", "contact:phone": "+7 965 1400400", "contact:website": "http://www.arenabysohofamily.com/", "name": "Arena"}}, {"type": "node", "id": 6812518648, "lat": 55.7832624, "lon": 37.596581, "tags": {"amenity": "nightclub", "contact:vk": "https://vk.com/clubgorodmsk", "name": "\u0413\u043e\u0440\u043e\u0434", "phone": "+7 901 3305198", "website": "https://gorod.club"}}, {"type": "node", "id": 6869344885, "lat": 55.7521304, "lon": 37.6652898, "tags": {"amenity": "nightclub", "contact:phone": "+7 495 9086852", "contact:website": "http://aglomerat.org/", "name": "\u0410\u0433\u043b\u043e\u043c\u0435\u0440\u0430\u0442", "name:en": "Aglomerat", "wikidata": "Q106906200"}}, {"type": "node", "id": 7044984295, "lat": 55.7614538, "lon": 37.5741407, "tags": {"amenity": "nightclub", "contact:phone": "+7 495 1500466", "contact:website": "https://karaoke-semenov.ru/", "karaoke": "yes", "name": "Semenov", "opening_hours": "Mo-Su 00:00-06:00,18:00-24:00", "wheelchair": "no"}}, {"type": "node", "id": 7125879520, "lat": 55.7454562, "lon": 37.6646385, "tags": {"amenity": "nightclub", "contact:facebook": "https://www.facebook.com/Dissident25/", "name": "District 27"}}, {"type": "node", "id": 7157574285, "lat": 55.7411839, "lon": 37.609934, "tags": {"amenity": "nightclub", "name": "Live Stars"}}, {"type": "node", "id": 7236197002, "lat": 55.6534869, "lon": 37.766784, "tags": {"amenity": "nightclub", "name": "Zall"}}, {"type": "node", "id": 7309191218, "lat": 55.7488605, "lon": 37.6661351, "tags": {"amenity": "nightclub", "contact:phone": "+7 965 4457432", "contact:website": "http://live8club.com/", "name": "Live8"}}, {"type": "node", "id": 7340026289, "lat": 55.7059279, "lon": 37.8282595, "tags": {"amenity": "nightclub"}}, {"type": "node", "id": 7370160400, "lat": 55.7612282, "lon": 37.6237576, "tags": {"amenity": "nightclub", "check_date:opening_hours": "2022-02-15", "contact:phone": "+7 495 1203400", "contact:website": "https://most-karaoke.ru/", "level": "-1", "name": "\u041c\u043e\u0441\u0442", "opening_hours": "Mo-Su 00:00-06:00,18:00-24:00", "wheelchair": "no"}}, {"type": "node", "id": 7853177846, "lat": 55.7612743, "lon": 37.5798565, "tags": {"amenity": "nightclub", "contact:phone": "+7 929 5503330", "contact:website": "https://www.monkeysclub.info", "name": "\u0422\u0440\u0438 \u043e\u0431\u0435\u0437\u044c\u044f\u043d\u044b", "opening_hours": "Mo-Su 00:00-08:00,20:00-24:00; Tu-Fr 00:00-05:00,20:00-24:00"}}, {"type": "node", "id": 7853177850, "lat": 55.7069042, "lon": 37.6492023, "tags": {"amenity": "nightclub", "contact:phone": "+7 916 4782782", "contact:website": "https://www.mcentralstation.com", "gay": "yes", "name": "\u0426\u0435\u043d\u0442\u0440\u0430\u043b\u044c\u043d\u0430\u044f \u0441\u0442\u0430\u043d\u0446\u0438\u044f", "opening_hours": "Mo 00:00-07:00; We 22:00-24:00; Th-Su 00:00-07:00,22:00-24:00"}}, {"type": "node", "id": 8121149352, "lat": 55.7211113, "lon": 37.6347237, "tags": {"addr:housenumber": "1 \u043a6", "addr:street": "\u041f\u0430\u0440\u0442\u0438\u0439\u043d\u044b\u0439 \u043f\u0435\u0440\u0435\u0443\u043b\u043e\u043a", "amenity": "nightclub", "contact:website": "https://1930.moscow/", "name": "1930 Moscow"}}, {"type": "node", "id": 8199967960, "lat": 55.7642518, "lon": 37.564538}, {"type": "node", "id": 8199967961, "lat": 55.7642453, "lon": 37.5646145}, {"type": "node", "id": 8276434150, "lat": 55.8234561, "lon": 37.8090175, "tags": {"amenity": "nightclub", "name": "MES"}}, {"type": "node", "id": 8282016717, "lat": 55.7372633, "lon": 37.6252248, "tags": {"amenity": "nightclub", "contact:facebook": "https://www.facebook.com/radugadiscoclub", "contact:instagram": "https://www.instagram.com/radugadiscoclub/", "name": "\u0420\u0430\u0434\u0443\u0433\u0430", "website": "http://radugadiscoclub.ru"}}, {"type": "node", "id": 8356794118, "lat": 55.804315, "lon": 37.4957933, "tags": {"amenity": "nightclub", "name:en": "Vintage"}}, {"type": "node", "id": 8550417572, "lat": 55.7533923, "lon": 37.6340308, "tags": {"amenity": "nightclub", "contact:instagram": "https://www.instagram.com/wellwell.musicbistro/", "name": "Well Well"}}, {"type": "node", "id": 8632241757, "lat": 55.7576846, "lon": 37.6462519, "tags": {"amenity": "nightclub", "contact:instagram": "https://www.instagram.com/zags.msk", "name": "Zags"}}, {"type": "node", "id": 8644649074, "lat": 55.7597496, "lon": 37.647182, "tags": {"amenity": "nightclub", "contact:instagram": "https://www.instagram.com/tutti_karaoke/", "contact:website": "http://tutti-karaoke.ru/", "karaoke": "yes", "name": "\u0422\u0443\u0442\u0442\u0438", "opening_hours": "Mo-Fr 00:00-06:00,17:00-24:00; Sa,Su 00:00-24:00"}}, {"type": "node", "id": 8739564182, "lat": 55.8035234, "lon": 37.5824824, "tags": {"amenity": "nightclub", "contact:facebook": "https://www.facebook.com/karaokedt1/", "contact:phone": "+7 977 8871647", "contact:telegram": "https://t.me/karaokedt", "contact:vk": "https://vk.com/karaokedt", "contact:whatsapp": "+7 977 8871647", "karaoke": "yes", "name": "\u041a\u0430\u0440\u0430\u043e\u043a\u0435 \u0414\u0422", "opening_hours": "We,Th 19:00-24:00; Fr 00:00-03:00,19:00-24:00; Sa 00:00-06:00,19:00-24:00; Su 00:00-06:00"}}, {"type": "node", "id": 9122000851, "lat": 55.7827614, "lon": 37.7037925, "tags": {"amenity": "nightclub", "name": "\u0418\u043d\u043a\u043e\u0433\u043d\u0438\u0442\u043e", "website": "https://inkognitoclub.ru/"}}, {"type": "node", "id": 9344479608, "lat": 55.8050663, "lon": 37.5861114, "tags": {"amenity": "nightclub", "contact:instagram": "https://www.instagram.com/urbn.live", "contact:website": "https://urban.live/", "name": "\u0423\u0440\u0431\u0430\u043d"}}, {"type": "node", "id": 9354087759, "lat": 55.784578, "lon": 37.5832495, "tags": {"amenity": "nightclub", "contact:instagram": "https://www.instagram.com/eto.polye/", "contact:website": "https://polye.ru/", "name": "\u041f\u043e\u043b\u0435"}}, {"type": "node", "id": 9394664170, "lat": 55.6840189, "lon": 37.4891415, "tags": {"amenity": "nightclub", "karaoke": "yes", "level": "0", "name": "PIPL"}}, {"type": "node", "id": 9472614917, "lat": 55.7577243, "lon": 37.6336698, "tags": {"addr:postcode": "101000", "amenity": "nightclub", "name": "\u041a\u043b\u0443\u0431 \u0410\u043b\u0435\u043a\u0441\u0435\u044f \u041a\u043e\u0437\u043b\u043e\u0432\u0430", "opening_hours": "Su-Th 12:00-00:00; Fr-Sa 12:00-06:00", "phone": "+7 (495) 792-39-59", "website": "https://kozlovclub.ru/"}}, {"type": "node", "id": 9670197410, "lat": 55.7616251, "lon": 37.6168871, "tags": {"amenity": "nightclub", "contact:instagram": "https://www.instagram.com/trumpmoscow/", "name": "Trump"}}, {"type": "node", "id": 9726734716, "lat": 55.774023, "lon": 37.6179792, "tags": {"amenity": "nightclub", "contact:instagram": "https://www.instagram.com/crush_karaoke/", "name": "Crush", "opening_hours": "Mo-Su 00:00-05:00,20:00-24:00"}}, {"type": "node", "id": 9820365095, "lat": 55.7694557, "lon": 37.6701106, "tags": {"amenity": "nightclub", "check_date": "2022-06-15", "name": "\u041a\u043e\u043b\u0435\u0442"}}, {"type": "node", "id": 10049131805, "lat": 55.7205905, "lon": 37.6845646, "tags": {"amenity": "nightclub", "contact:website": "https://main-stage.ru/", "name": "Main Stage"}}, {"type": "node", "id": 10055735939, "lat": 55.7330261, "lon": 37.639645, "tags": {"amenity": "nightclub", "contact:phone": "+7 499 4994036", "contact:website": "http://solokaraoke.ru", "karaoke": "yes", "name": "\u0421\u043e\u043b\u043e"}}, {"type": "node", "id": 10075060453, "lat": 55.7626513, "lon": 37.6615325, "tags": {"amenity": "nightclub", "contact:website": "https://treff8.com/", "name": "Treff8"}}, {"type": "node", "id": 10123955956, "lat": 55.7620077, "lon": 37.617555, "tags": {"amenity": "nightclub", "contact:instagram": "https://www.instagram.com/fantastique.moscow/", "contact:website": "http://fantastique.moscow/", "name": "Fantastique"}}, {"type": "way", "id": 37647635, "nodes": [441310270, 5606098607, 5606098606, 441310277, 3214921015, 3214921014, 441310274, 8199967960, 8199967961, 441310272, 5606098605, 3214921012, 3214921011, 441310270], "tags": {"addr:housenumber": "6 \u04411", "addr:street": "\u0443\u043b\u0438\u0446\u0430 \u041f\u0440\u0435\u0441\u043d\u0435\u043d\u0441\u043a\u0438\u0439 \u0412\u0430\u043b", "amenity": "nightclub", "building": "yes", "building:levels": "2", "check_date:opening_hours": "2022-03-26", "contact:phone": "+7 499 2535300", "contact:website": "http://www.16tons.ru", "microbrewery": "yes", "name": "16 \u0442\u043e\u043d\u043d", "name:en": "16 tons", "name:ru": "16 \u0442\u043e\u043d\u043d", "opening_hours": "Mo-Su 11:00-06:00", "roof:shape": "flat", "takeaway": "yes", "wikidata": "Q4523392", "wikipedia": "ru:\u0428\u0435\u0441\u0442\u043d\u0430\u0434\u0446\u0430\u0442\u044c \u0442\u043e\u043d\u043d (\u043a\u043b\u0443\u0431)"}}, {"type": "way", "id": 232741346, "nodes": [2410690980, 2410690968, 2410690974, 2410690977, 2410690982, 2410690980], "tags": {"addr:housenumber": "110", "addr:street": "\u0443\u043b\u0438\u0446\u0430 \u041d\u0438\u0436\u043d\u0438\u0435 \u041c\u043d\u0451\u0432\u043d\u0438\u043a\u0438", "amenity": "nightclub", "contact:website": "bikecenter.ru", "name": "Sexton"}}, {"type": "way", "id": 385840820, "nodes": [3891759715, 3891759727, 3891759728, 3891759720, 3891759719, 3891759716, 3891759715], "tags": {"addr:housenumber": "24 \u04415", "addr:street": "\u0414\u0435\u0440\u0431\u0435\u043d\u0435\u0432\u0441\u043a\u0430\u044f \u0443\u043b\u0438\u0446\u0430", "amenity": "nightclub", "building": "yes", "building:levels": "2", "source": "\u0410\u0434\u0440\u0435\u0441\u043d\u044b\u0439 \u0440\u0435\u0435\u0441\u0442\u0440 \u041c\u043e\u0441\u043a\u0432\u044b, data.mos.ru"}}]}